Id,category,adress,postcode,city,borough,neighbourhood,suburb,town,village,hamlet,road,road_reference
13080,road,"Calle los Deportistas, 33939 Llangréu / Langreo, Spain",33939,,,,,Llangréu / Langreo,,La Teyera,Calle los Deportistas,
40576,building,"Camín del Rubín, 8, 33213 Gijón, Spain",33213,Gijón,Distrito Oeste,,El Cerilleru,,,,Camín del Rubín,
47052,road,"unnamed road, 33328 Colunga, Spain",33328,,,El Nuevu Carmen,,,Colunga,Lluces,unnamed road,
59607,building,"Plaza Olímpica, 2, 33012 Oviedo, Spain",33012,Oviedo,,,La Florida,,,,Plaza Olímpica,
59630,commerce,"Paco Martínez, Calle Gil de Jaz, 33004 Oviedo, Spain",33004,Oviedo,,,Llamaquique,,,,Calle Gil de Jaz,
59631,commerce,"Paco Martínez, Calle Gil de Jaz, 33004 Oviedo, Spain",33004,Oviedo,,,Llamaquique,,,,Calle Gil de Jaz,
59712,building,"Edificio de Manuel López García, Calle Independencia, 37I, 33004 Oviedo, Spain",33004,Oviedo,,,Llamaquique,,,,Calle Independencia,
59810,building,"Calle Lorenzo Abruñedo, 4, 33004 Oviedo, Spain",33004,Oviedo,,,Ciudad Naranco,,,,Calle Lorenzo Abruñedo,
59821,fictitious,Null Island,,,,,,,,,,
79277,road,"unnamed road, 33199 Siero, Spain",33199,Siero,,,,,,Fonciello,unnamed road,
80481,building,"Avenida de Salvador Allende, 20, 33211 Gijón, Spain",33211,Gijón,Distrito Sur,,Roces,,,,Avenida de Salvador Allende,
92220,building,"Avenida de El Llano, 38, 33209 Gijón, Spain",33209,Gijón,Distrito Llano,,,,,,Avenida de El Llano,
92591,road,"Carretera de Villabona a Serín, 33480 Gijón, Spain",33480,Gijón,,,,,,El Peridiellu,Carretera de Villabona a Serín,AS-325
94035,road,"Carrer Serra Bernia, 03530 la Nucia, Spain",03530,,,Urbanización Entrepinos,Coloma,la Nucia,,,Carrer Serra Bernia,
103092,building,"Pantiga, Cai Carreño Miranda / Calle Carreño Miranda, 11, 33400 Avilés, Spain",33400,,,El Parrocho,Sabugo,Avilés,,,Cai Carreño Miranda / Calle Carreño Miranda,
103159,road,"Cai La Cámara / Calle La Cámara, 33401 Avilés, Spain",33401,,,El Parrocho,Sabugo,Avilés,,,Cai La Cámara / Calle La Cámara,
105148,road,"N-632, Villaviciosa, Spain",,,,,,Villaviciosa,,El Pedrosu,N-632,N-632
105373,commerce,"Centro Cívico Comercial, Calle Carlos López Otín, 33005 Oviedo, Spain",33005,Oviedo,,,Llamaquique,,,,Calle Carlos López Otín,
105518,road,"Calle Simón González, 33213 Gijón, Spain",33213,Gijón,Distrito Oeste,,La Calzada,,,,Calle Simón González,
106212,road,"Calle del Rayo, 33010 Oviedo, Spain",33010,Oviedo,,,Vetusta,,,,Calle del Rayo,
107162,building,"Calle Caveda, 13, 33205 Gijón, Spain",33205,Gijón,Distrito Llano,,,,,,Calle Caveda,
107298,road,"unnamed road, 33660 Oviedo, Spain",33660,Oviedo,,,,,,La Mortera,unnamed road,
114379,road,"Travesía de las Eras, Santas Martas, Spain",,,,,,,Santas Martas,Villamarco,Travesía de las Eras,
117692,road,"CE-6, 33438 Carreño, Spain",33438,Carreño,,,,,,La Baragaña,CE-6,CE-6
119762,building,"Calle Cabrales, 63, 33205 Gijón, Spain",33205,Gijón,Distrito Centro,,Centro,,,,Calle Cabrales,
125474,road,"unnamed road, Villaviciosa, Spain",,,,,,Villaviciosa,,Arroes,unnamed road,
126069,road,"unnamed road, 33393 Gijón, Spain",33393,Gijón,,,,,,Sotiello,unnamed road,
126303,road,"unnamed road, 33157 Cudillero, Spain",33157,Cudillero,,,,,,Castañeras,unnamed road,
126308,road,"Carretera Llovio - Canero, 33157 Cudillero, Spain",33157,Cudillero,,,,,,Santa Marina,Carretera Llovio - Canero,N-632a
126310,road,"Carretera Llovio - Canero, 33157 Cudillero, Spain",33157,Cudillero,,,,,,Santa Marina,Carretera Llovio - Canero,N-632a
126314,road,"unnamed road, 33157 Cudillero, Spain",33157,Cudillero,,,,,,Castañeras,unnamed road,
126370,building,"Torruxón de Priendes, Carretera de L'Empalme a Avilés, 33491 Carreño, Spain",33491,Carreño,,,,,,El Polleo,Carretera de L'Empalme a Avilés,
154503,road,"Calle Socarrera, 33180 Noreña, Spain",33180,,,,,,Noreña,,Calle Socarrera,
170395,road,"Calle Victor Fernández Mayo, 33980 Laviana, Spain",33980,Laviana,,,,Pola de Laviana,,,Calle Victor Fernández Mayo,
180831,building,"Avenida Príncipe de Asturias, 6, 33212 Gijón, Spain",33212,Gijón,Distrito Oeste,,Santa Olaya,,,,Avenida Príncipe de Asturias,
187092,road,"Camín de Santolaya Valdornón, 33394 Gijón, Spain",33394,Gijón,Distrito Rural,,,,,Santolaya,Camín de Santolaya Valdornón,
209294,road,"unnamed road, 33527 Bimenes, Spain",33527,Bimenes,,,,,Bimenes,El Cuitu,unnamed road,
212377,road,"Plaza de La Bolera, Laviana, Spain",,Laviana,,El Xerrón,,,Laviana,Soto,Plaza de La Bolera,
214237,travel/tourism,"Hotel Rural Reciegos, Carretera Riaño - Puerto de Tarna, 33990 Caso, Spain",33990,Caso,,Reciegos,,,Caso,Veneros,Carretera Riaño - Puerto de Tarna,
217014,road,"Calle del Río, 33695 Lena, Spain",33695,,,,,Lena,,Viḷḷayana,Calle del Río,
217123,road,"Camino de la Estación, 33403 Avilés, Spain",33403,,,,El Pozón,Avilés,,,Camino de la Estación,
219652,commerce,"Confitería Biarritz, Avenida de Rufo Garcia Rendueles, 2, 33203 Gijón, Spain",33203,Gijón,Distrito Centro,,Centro,,,,Avenida de Rufo Garcia Rendueles,
220299,government,"Tenencia de Alcaldía de Morea, Avenida de la Constitución, 33, 33670 Aller, Spain",33670,Aller,,"La Casanueva, Morea",,Morea / Moreda,,Sotiellu,Avenida de la Constitución,
220381,building,"Avenida de Pablo Iglesias, 83, 33204 Gijón, Spain",33204,Gijón,Distrito Este,El Bibio,El Coto,,,,Avenida de Pablo Iglesias,
246794,road,"Calle San Nicolás, 33210 Gijón, Spain",33210,Gijón,Distrito Sur,,,,,,Calle San Nicolás,
252565,road,"unnamed road, 33988 Samartín del Rei Aurelio, Spain",33988,,,,,Samartín del Rei Aurelio,,La Robellá,unnamed road,
252568,road,"BI-4, 33527 Bimenes, Spain",33527,Bimenes,,,,,,La Llera,BI-4,BI-4
288463,road,"Calle de Mariano Menéndez Valdés, 33980 Laviana, Spain",33980,Laviana,,,,Pola de Laviana,,,Calle de Mariano Menéndez Valdés,
296268,road,"unnamed road, 33180 Noreña, Spain",33180,,,,,,Noreña,,unnamed road,
296270,road,"unnamed road, 33180 Noreña, Spain",33180,,,,,,Noreña,,unnamed road,
296272,road,"unnamed road, 33180 Noreña, Spain",33180,,,,,,Noreña,,unnamed road,
296280,outdoors/recreation,"Zona de juegos, Calle Los Vayones, 33180 Noreña, Spain",33180,,,,,,Noreña,,Calle Los Vayones,
296281,outdoors/recreation,"Zona de juegos, Calle Los Vayones, 33180 Noreña, Spain",33180,,,,,,Noreña,,Calle Los Vayones,
312809,road,"Calle Los Vayones, 33180 Noreña, Spain",33180,,,,,,Noreña,,Calle Los Vayones,
312811,road,"Calle Regino Escalera, 33180 Noreña, Spain",33180,,,,,,Noreña,,Calle Regino Escalera,
312821,road,"unnamed road, 33199 Siero, Spain",33199,Siero,,,,,,Fuentespino,unnamed road,
312828,road,"unnamed road, 33199 Siero, Spain",33199,Siero,,,,,,Fuentespino,unnamed road,
312836,road,"Calle Camino del Peregrino, 33180 Noreña, Spain",33180,,,,,,Noreña,,Calle Camino del Peregrino,
326265,road,"Calle Sor Juana Inés de la Cruz, 33211 Gijón, Spain",33211,Gijón,Distrito Sur,,Roces,,,,Calle Sor Juana Inés de la Cruz,
436909,road,"Camino del Alto de la Cruz, 33390 Gijón, Spain",33390,Gijón,,,,,,Llantones,Camino del Alto de la Cruz,
438120,building,"Calle San Luis, 1, 33202 Gijón, Spain",33202,Gijón,Distrito Centro,,Centro,,,,Calle San Luis,
439943,road,"Plaza Seis de Agosto, 33206 Gijón, Spain",33206,Gijón,Distrito Centro,,Centro,,,,Plaza Seis de Agosto,
452457,road,"Antigua N-634, 33750 El Franco, Spain",33750,El Franco,,,,,El Franco,Llóngara,Antigua N-634,N-634 FR
453324,road,"Carretera de Posada de Llanera a La Campana, 33690 Llanera, Spain",33690,Llanera,,,,,,Castiello (Lugo),Carretera de Posada de Llanera a La Campana,AS-374
454431,building,"El Cañal, unnamed road, 33194 Llanera, Spain",33194,Llanera,,,,,,,unnamed road,
454432,building,"El Cañal, unnamed road, 33194 Llanera, Spain",33194,Llanera,,,,,,,unnamed road,
454433,building,"El Cañal, unnamed road, 33194 Llanera, Spain",33194,Llanera,,,,,,,unnamed road,
454648,road,"Camín de La Pedrera, 33392 Gijón, Spain",33392,Gijón,,,,,,Arroyo (La Pedrera),Camín de La Pedrera,
460548,road,"Carretera de Romadonga y Salines, 33449 Gozón, Spain",33449,Gozón,,,,Luanco / Lluanco,,Condres,Carretera de Romadonga y Salines,
460836,building,"Carretera de la Carbonera, 17, 33210 Gijón, Spain",33210,Gijón,Distrito Llano,,,,,,Carretera de la Carbonera,
461091,road,"unnamed road, 33684 Aller, Spain",33684,Aller,,,,Morea / Moreda,,Caborana,unnamed road,
461131,road,"unnamed road, 33006 Oviedo, Spain",33006,Oviedo,,,El Monte Cerráu,,,,unnamed road,
467527,road,"unnamed road, 33186 Siero, Spain",33186,Siero,,,,,,Ñora,unnamed road,
467529,road,"unnamed road, 33186 Siero, Spain",33186,Siero,,,,,,Ñora,unnamed road,
467531,road,"unnamed road, 33186 Siero, Spain",33186,Siero,,,,,,Ñora,unnamed road,
481007,road,"Calle Honduras, 33212 Gijón, Spain",33212,Gijón,Distrito Oeste,,La Calzada,,,,Calle Honduras,
493503,road,"unnamed road, 33180 Noreña, Spain",33180,,,,,,Noreña,,unnamed road,
493933,road,"unnamed road, 33180 Noreña, Spain",33180,,,,,,Noreña,,unnamed road,
493934,road,"unnamed road, 33180 Noreña, Spain",33180,,,,,,Noreña,,unnamed road,
493935,road,"unnamed road, 33180 Noreña, Spain",33180,,,,,,Noreña,,unnamed road,
499544,outdoors/recreation,"Campo Municipal La Llorea, Camino de los Pisones, 33294 Villaviciosa, Spain",33294,,,,,Villaviciosa,,,Camino de los Pisones,
500939,road,"unnamed road, 33980 Laviana, Spain",33980,Laviana,,,,,Laviana,La Paraína,unnamed road,
520464,building,"Calle Quevedo, 8, 33204 Gijón, Spain",33204,Gijón,Distrito Este,,Ceares / Ciares,,,,Calle Quevedo,
521950,building,"Calle Doctor Aquilino Hurlé, 4, 33202 Gijón, Spain",33202,Gijón,Distrito Este,El Bibio,El Coto,,,,Calle Doctor Aquilino Hurlé,
522165,road,"unnamed road, 33173 Ribera de Arriba, Spain",33173,Ribera de Arriba,,La Costana,,,Ribera de Arriba,Lugar de Abajo,unnamed road,
522166,road,"unnamed road, 33173 Ribera de Arriba, Spain",33173,Ribera de Arriba,,La Costana,,,Ribera de Arriba,Lugar de Abajo,unnamed road,
522954,road,"Camín de la Fuente de Turiellos, 33390 Gijón, Spain",33390,Gijón,,,,,,Mareo de Baxo,Camín de la Fuente de Turiellos,
522962,road,"Camín de la Fuente de Turiellos, 33390 Gijón, Spain",33390,Gijón,,,,,,Mareo de Baxo,Camín de la Fuente de Turiellos,
525634,road,"unnamed road, 33157 Cudillero, Spain",33157,Cudillero,,,,,,Albuerne,unnamed road,
526309,road,"unnamed road, 33010 Oviedo, Spain",33010,Oviedo,,,El Palais,,,,unnamed road,
526932,road,"unnamed road, 33980 Laviana, Spain",33980,Laviana,,,,Pola de Laviana,,,unnamed road,
531290,road,"Carretera Llovio - Canero, 33155 Cudillero, Spain",33155,Cudillero,,,,,,Castañéu,Carretera Llovio - Canero,N-632a
531443,building,"Calle Doctor Aquilino Hurlé, 4, 33202 Gijón, Spain",33202,Gijón,Distrito Este,El Bibio,El Coto,,,,Calle Doctor Aquilino Hurlé,
540328,road,"Carretera de Barredos a San Julián de Bimenes, 33960 Bimenes, Spain",33960,Bimenes,,,,,,Les Quintanes,Carretera de Barredos a San Julián de Bimenes,AS-382
540851,road,"unnamed road, 33980 Laviana, Spain",33980,Laviana,,,,,,Mardana,unnamed road,
558878,place,"33589 Cangas de Onís, Spain",33589,Cangas de Onís,,,,,,,,
559756,road,"Calle del Sol, 33980 Laviana, Spain",33980,Laviana,,,,Pola de Laviana,,,Calle del Sol,
560084,road,"Calle Ángel Cañedo, 33010 Oviedo, Spain",33010,Oviedo,,,Teatinos,,,,Calle Ángel Cañedo,
560708,road,"Carretera de Veriña a San Andrés, 33393 Gijón, Spain",33393,Gijón,,,Montiana,,,,Carretera de Veriña a San Andrés,
560723,road,"Acceso a la Concha de Artedo, 33155 Cudillero, Spain",33155,Cudillero,,,,,,La Magdalena,Acceso a la Concha de Artedo,
560864,commerce,"Sidrería El Serazo, Calle Bajamar, 33125 Soto del Barco, Spain",33125,Soto del Barco,,L'Arrabal,,,Soto del Barco,La Calea,Calle Bajamar,
566020,road,"unnamed road, Villaviciosa, Spain",,,,,,Villaviciosa,,Celada,unnamed road,
567168,road,"unnamed road, 33970 Laviana, Spain",33970,Laviana,,,,,,Sayeo,unnamed road,
567185,building,"Carretera de Trubia, 1958, 33392 Gijón, Spain",33392,Gijón,,,,,,Trubia,Carretera de Trubia,
569225,road,"Calle Ana María, 33208 Gijón, Spain",33208,Gijón,Distrito Llano,,,,,,Calle Ana María,
569889,road,"Calle Noreña, 33010 Oviedo, Spain",33010,Oviedo,,,El Palais,,,,Calle Noreña,
582509,road,"Calle Noreña, 33010 Oviedo, Spain",33010,Oviedo,,,El Palais,,,,Calle Noreña,
589911,road,"Carretera La Roda - El Monte - Castrovaselle, 33747 Tapia de Casariego, Spain",33747,,,,,,Tapia de Casariego,Castrobaselle,Carretera La Roda - El Monte - Castrovaselle,TC-5
589914,road,"unnamed road, 33150 Cudillero, Spain",33150,Cudillero,,,,,Cudillero,Villamar,unnamed road,
601422,road,"Camín de Casares a Arroyo, 33392 Gijón, Spain",33392,Gijón,,,,,,Casares,Camín de Casares a Arroyo,
603348,building,"Calle Pilar, 13, 33210 Gijón, Spain",33210,Gijón,Distrito Llano,,,,,,Calle Pilar,
604097,building,"Calle Marqués de Casa Valdés, 29, 33202 Gijón, Spain",33202,Gijón,Distrito Centro,,Centro,,,,Calle Marqués de Casa Valdés,
604121,road,"unnamed road, 33310 Villaviciosa, Spain",33310,,,,,Villaviciosa,,La Infiesta,unnamed road,
604302,road,"unnamed road, 33314 Villaviciosa, Spain",33314,,,,,Villaviciosa,,,unnamed road,
604307,road,"unnamed road, 33314 Villaviciosa, Spain",33314,,,,,Villaviciosa,,,unnamed road,
604383,road,"Calle la Terraza, Valverde de la Virgen, Spain",,,,,,,Valverde de la Virgen,San Miguel del Camino,Calle la Terraza,
610005,commerce,"El Manzanu, Calle Álvaro Florez Estrada, 33006 Oviedo, Spain",33006,Oviedo,,,Buenavista,,,,Calle Álvaro Florez Estrada,
615528,road,"Calle la Carreta, Valdevimbre, Spain",,,,,,,Valdevimbre,,Calle la Carreta,
627491,building,"Carretera de La Puerta a Las Campas, 5, 33867 Salas, Spain",33867,,,Los Pravianos,,Salas,,La Estrada,Carretera de La Puerta a Las Campas,
627497,road,"Autovía Ruta de la Plata, 33615 Mieres, Spain",33615,Mieres,,La Pedrera,,,Mieres,El Quemaeru,Autovía Ruta de la Plata,
627498,road,"Autovía Ruta de la Plata, 33615 Mieres, Spain",33615,Mieres,,La Pedrera,,,Mieres,El Quemaeru,Autovía Ruta de la Plata,
630924,road,"unnamed road, 33980 Laviana, Spain",33980,Laviana,,,,Pola de Laviana,,,unnamed road,
633051,road,"unnamed road, 33392 Gijón, Spain",33392,Gijón,,,,,,Riera,unnamed road,
634433,road,"Camín de La Barquera, 33204 Gijón, Spain",33204,Gijón,Distrito Rural,Castiello Bernueces,,,,,Camín de La Barquera,
635722,road,"Carretera de Villaverde y Careñes, Villaviciosa, Spain",,,,,,Villaviciosa,,Atilán,Carretera de Villaverde y Careñes,VV-3
635907,road,"Calle Candás, 33207 Gijón, Spain",33207,Gijón,Distrito Centro,,Laviada,,,,Calle Candás,
669327,building,"Calle Mariscal Solís, 14, 33012 Oviedo, Spain",33012,Oviedo,,,El Vallobín,,,,Calle Mariscal Solís,
670181,road,"unnamed road, 33960 Samartín del Rei Aurelio, Spain",33960,,,,,Samartín del Rei Aurelio,,El Nietu,unnamed road,
671829,road,"Ramal a la playa de Moniello, 33440 Gozón, Spain",33440,Gozón,,Urb. La Corona,,Luanco / Lluanco,,Moniello,Ramal a la playa de Moniello,
674137,road,"Avenida de la Libertad, 33980 Laviana, Spain",33980,Laviana,,Solavega,,Pola de Laviana,,,Avenida de la Libertad,AS-387
678001,road,"Caleya de Carcedo, 33394 Gijón, Spain",33394,Gijón,Distrito Rural,Santurio,,,,Carceo (Santurio),Caleya de Carcedo,
678002,road,"Travesía de Jesús Evaristo Casariego, 33870 Tineo, Spain",33870,,,,,Tineo,,,Travesía de Jesús Evaristo Casariego,
679041,road,"Carretera de Siones, 33174 Oviedo, Spain",33174,Oviedo,,,,,Oviedo,Figarines,Carretera de Siones,OV-1
679056,building,"Calle Vázquez de Mella, 73, 33012 Oviedo, Spain",33012,Oviedo,,,El Vallobín,,,,Calle Vázquez de Mella,
679456,road,"unnamed road, 33157 Cudillero, Spain",33157,Cudillero,,,,,,Castañeras,unnamed road,
681037,road,"Camín de Santolaya Valdornón, 33394 Gijón, Spain",33394,Gijón,Distrito Rural,,,,,Santolaya,Camín de Santolaya Valdornón,
681067,road,"Camín de Santolaya Valdornón, 33394 Gijón, Spain",33394,Gijón,Distrito Rural,,,,,Santolaya,Camín de Santolaya Valdornón,
681351,building,"Calle Badajoz, 1, 33210 Gijón, Spain",33210,Gijón,Distrito Sur,,Pumarín,,,,Calle Badajoz,
685892,commerce,"Cafeteria Santa Olaya, Camino del Lucero, 33212 Gijón, Spain",33212,Gijón,Distrito Oeste,,Santa Olaya,,,,Camino del Lucero,
687411,road,"unnamed road, 33013 Oviedo, Spain",33013,Oviedo,,,La Ería,,,,unnamed road,
687695,road,"unnamed road, 33350 Gijón, Spain",33350,Gijón,,,Vega,,Gijón,,unnamed road,
697701,road,"unnamed road, 33317 Villaviciosa, Spain",33317,,,,,Villaviciosa,,Seloriu,unnamed road,
700754,road,"unnamed road, 33691 Gijón, Spain",33691,Gijón,Distrito Oeste,,,,,Veriña de Riba,unnamed road,
700979,road,"unnamed road, 33317 Villaviciosa, Spain",33317,,,,,Villaviciosa,,Castiello de Selorio,unnamed road,
700985,road,"unnamed road, 33350 Siero, Spain",33350,Siero,,,,,,Grandarrasa,unnamed road,
701216,road,"unnamed road, 33518 Sariego, Spain",33518,Sariego,,,,,Sariego,Canal,unnamed road,
701217,road,"unnamed road, 33518 Sariego, Spain",33518,Sariego,,,,,Sariego,Canal,unnamed road,
702032,building,"Calle Enrique Jardón Celaya, 8, 33900 Llangréu / Langreo, Spain",33900,,,,Sama,Llangréu / Langreo,,,Calle Enrique Jardón Celaya,
702620,road,"Carretera de San Miguel, 33294 Gijón, Spain",33294,Gijón,Distrito Rural,,,,,La Olla,Carretera de San Miguel,
703862,road,"Carretera Irún - La Coruña, 33547 Cangas de Onís, Spain",33547,Cangas de Onís,,,,,,La Granda,Carretera Irún - La Coruña,N-634
705840,road,"Camín del Cantu Mareo, 33394 Gijón, Spain",33394,Gijón,Distrito Rural,,,,,Robleo,Camín del Cantu Mareo,
705996,road,"Camín de Robleo, 33394 Gijón, Spain",33394,Gijón,Distrito Rural,,,,,Robleo,Camín de Robleo,
708488,outdoors/recreation,"Centro de Interpretación de la Emigración e Instrucción Pública, Carretera Navia - Alto del Acebo, 33728 Boal, Spain",33728,Boal,,,,,Boal,San Luís,Carretera Navia - Alto del Acebo,
708772,road,"unnamed road, 33527 Bimenes, Spain",33527,Bimenes,,,,,Bimenes,La Fontanina,unnamed road,
721332,road,"Plaza de la Iglesia, 33510 Siero, Spain",33510,Siero,,,,,,Urbanización Verdesur - Les Granxes,Plaza de la Iglesia,
721698,road,"Camín de la Raposa, 33423 Gijón, Spain",33423,Gijón,,,,,,Casa la Paxarera,Camín de la Raposa,
728904,road,"unnamed road, 33010 Oviedo, Spain",33010,Oviedo,,,La Monxina,,,,unnamed road,
729335,building,"Calle Extremadura, 13, 33210 Gijón, Spain",33210,Gijón,Distrito Sur,,Pumarín,,,,Calle Extremadura,
731594,road,"Carretera de San Esteban de Les Cruces a Frieres, 33195 Oviedo, Spain",33195,Oviedo,,,,,Oviedo,L'Argomal,Carretera de San Esteban de Les Cruces a Frieres,AS-354
737616,road,"unnamed road, Villaviciosa, Spain",,,,,,Villaviciosa,Villaviciosa,Torretejera,unnamed road,
739040,road,"unnamed road, 33294 Villaviciosa, Spain",33294,,,,,Villaviciosa,Villaviciosa,Medio,unnamed road,
739047,road,"unnamed road, 33294 Villaviciosa, Spain",33294,,,,,Villaviciosa,Villaviciosa,Medio,unnamed road,
740752,road,"Camín del Cotarón, 33204 Gijón, Spain",33204,Gijón,Distrito Rural,Castiello Bernueces,,,,Samiguel,Camín del Cotarón,
741607,building,"Calle Alarcón, 38, 33202 Gijón, Spain",33202,Gijón,Distrito Este,El Bibio,El Coto,,,,Calle Alarcón,
743814,road,"Calle Ramón G. Valle - Travesía de Pravia, 33120 Pravia, Spain",33120,,,,,Pravia,,Praúa,Calle Ramón G. Valle - Travesía de Pravia,PV-4
744480,building,"Calle Usandizaga, 2, 33204 Gijón, Spain",33204,Gijón,Distrito Este,El Bibio,El Coto,,,,Calle Usandizaga,
773761,road,"unnamed road, 33294 Gijón, Spain",33294,Gijón,Distrito Rural,,,,,L'Alto l'Infanzón,unnamed road,
773870,road,"unnamed road, 33294 Gijón, Spain",33294,Gijón,Distrito Rural,,,,,L'Alto l'Infanzón,unnamed road,
774139,road,"unnamed road, 33294 Gijón, Spain",33294,Gijón,Distrito Rural,,,,,L'Alto l'Infanzón,unnamed road,
774142,road,"unnamed road, 33294 Gijón, Spain",33294,Gijón,Distrito Rural,,,,,L'Alto l'Infanzón,unnamed road,
774146,financial,"Unicaja Banco, Calle Feijoo, 54, 33204 Gijón, Spain",33204,Gijón,Distrito Este,El Bibio,El Coto,,,,Calle Feijoo,
774608,road,"Piazza Giuseppe Tortora, 71042 Cerignola FG, Italy",71042,,,,,Cerignola,,,Piazza Giuseppe Tortora,
774611,building,"Calle Ceriñola, 25, 33212 Gijón, Spain",33212,Gijón,Distrito Oeste,,Santa Olaya,,,,Calle Ceriñola,
776973,building,"Paseo de La Florida, 25, 33012 Oviedo, Spain",33012,Oviedo,,,La Florida,,,,Paseo de La Florida,
777713,building,"Calle Vázquez de Mella, 69, 33012 Oviedo, Spain",33012,Oviedo,,,El Vallobín,,,,Calle Vázquez de Mella,
777912,building,"Avenida de los doctores Fernández Vega, 5, 33012 Oviedo, Spain",33012,Oviedo,,,El Vallobín,,,,Avenida de los doctores Fernández Vega,
778701,building,"Camino del Lucero, 19, 33212 Gijón, Spain",33212,Gijón,Distrito Oeste,,Santa Olaya,,,,Camino del Lucero,
781256,road,"Calle Eulalia Álvarez, 33208 Gijón, Spain",33208,Gijón,Distrito Llano,,,,,,Calle Eulalia Álvarez,
782684,commerce,"Paco Martínez, Calle Gil de Jaz, 33004 Oviedo, Spain",33004,Oviedo,,,Llamaquique,,,,Calle Gil de Jaz,
784014,road,"Calle Barcas, 33213 Gijón, Spain",33213,Gijón,Distrito Oeste,,El Cerilleru,,,,Calle Barcas,
784020,road,"unnamed road, 33195 Oviedo, Spain",33195,Oviedo,,,,,,Faro,unnamed road,
784770,building,"Calle Leopoldo Alas, 13, 33202 Gijón, Spain",33202,Gijón,Distrito Este,El Bibio,L'Arena,,,,Calle Leopoldo Alas,
784786,road,"Carretera de la Isla, 33203 Gijón, Spain",33203,Gijón,Distrito Rural,,,,,,Carretera de la Isla,
785885,road,"Calle Central, 33213 Gijón, Spain",33213,Gijón,Distrito Oeste,,La Calzada,,,,Calle Central,
786746,road,"Plaza de la Victoria, 33120 Pravia, Spain",33120,,,,,Pravia,,Praúa,Plaza de la Victoria,
786747,road,"Plaza de la Victoria, 33120 Pravia, Spain",33120,,,,,Pravia,,Praúa,Plaza de la Victoria,
786964,transportation,"Aparcamiento C.C. La Calzada, Calle del Paraguay, 33212 Gijón, Spain",33212,Gijón,Distrito Oeste,,La Calzada,,,,Calle del Paraguay,
790707,road,"unnamed road, 33990 Caso, Spain",33990,Caso,,,,,,Bueres,unnamed road,
791088,road,"calle Berriobide, 31014 Ansoáin/Antsoain, Spain",31014,,,,,Ansoáin/Antsoain,,,calle Berriobide,
791089,road,"calle Berriobide, 31014 Ansoáin/Antsoain, Spain",31014,,,,,Ansoáin/Antsoain,,,calle Berriobide,
791090,road,"calle Berriobide, 31014 Ansoáin/Antsoain, Spain",31014,,,,,Ansoáin/Antsoain,,,calle Berriobide,
791091,road,"calle Berriobide, 31014 Ansoáin/Antsoain, Spain",31014,,,,,Ansoáin/Antsoain,,,calle Berriobide,
791092,road,"unnamed road, 33410 Avilés, Spain",33410,,,,,Avilés,,Santana,unnamed road,
791095,road,"Calle Santa Ana, 33940 Samartín del Rei Aurelio, Spain",33940,,,El Japón,,Samartín del Rei Aurelio,,La Xuliana,Calle Santa Ana,
791100,road,"unnamed road, 33950 Samartín del Rei Aurelio, Spain",33950,,,El Serrallo,,Samartín del Rei Aurelio,Samartín del Rei Aurelio,La Venta,unnamed road,
791102,road,"Calle Ricardo Vázquez Prada / Cai Ricardo Vázquez Prada, 33013 Oviedo, Spain",33013,Oviedo,,,La Ería,,,,Calle Ricardo Vázquez Prada / Cai Ricardo Vázquez Prada,
791104,road,"unnamed road, 33950 Samartín del Rei Aurelio, Spain",33950,,,El Serrallo,,Samartín del Rei Aurelio,Samartín del Rei Aurelio,La Venta,unnamed road,
791106,road,"CO-2, 33589 Cangas de Onís, Spain",33589,Cangas de Onís,,,,,,Següencu,CO-2,CO-2
791107,road,"CO-2, 33589 Cangas de Onís, Spain",33589,Cangas de Onís,,,,,,Següencu,CO-2,CO-2
791108,road,"CO-2, 33589 Cangas de Onís, Spain",33589,Cangas de Onís,,,,,,Següencu,CO-2,CO-2
791109,road,"Avenida de La Literatura, 33212 Gijón, Spain",33212,Gijón,Distrito Oeste,,El Natahoyo,,,,Avenida de La Literatura,
791110,road,"Avenida de La Literatura, 33212 Gijón, Spain",33212,Gijón,Distrito Oeste,,El Natahoyo,,,,Avenida de La Literatura,
791111,road,"Avenida de La Literatura, 33212 Gijón, Spain",33212,Gijón,Distrito Oeste,,El Natahoyo,,,,Avenida de La Literatura,
791112,road,"Carretera de La Secada a Gargantada, 33936 Siero, Spain",33936,Siero,,,,,,El Cotoyu,Carretera de La Secada a Gargantada,
791113,road,"Avenida de La Literatura, 33212 Gijón, Spain",33212,Gijón,Distrito Oeste,,El Natahoyo,,,,Avenida de La Literatura,
791114,road,"Avenida de La Literatura, 33212 Gijón, Spain",33212,Gijón,Distrito Oeste,,El Natahoyo,,,,Avenida de La Literatura,
791115,road,"Avenida de La Literatura, 33212 Gijón, Spain",33212,Gijón,Distrito Oeste,,El Natahoyo,,,,Avenida de La Literatura,
791116,road,"Avenida de La Literatura, 33212 Gijón, Spain",33212,Gijón,Distrito Oeste,,El Natahoyo,,,,Avenida de La Literatura,
791117,road,"Avenida de La Literatura, 33212 Gijón, Spain",33212,Gijón,Distrito Oeste,,El Natahoyo,,,,Avenida de La Literatura,
791118,road,"Avenida de La Literatura, 33212 Gijón, Spain",33212,Gijón,Distrito Oeste,,El Natahoyo,,,,Avenida de La Literatura,
791119,road,"CO-2, 33589 Cangas de Onís, Spain",33589,Cangas de Onís,,,,,,Següencu,CO-2,CO-2
791120,road,"Calle Ricardo Vázquez Prada / Cai Ricardo Vázquez Prada, 33013 Oviedo, Spain",33013,Oviedo,,,La Ería,,,,Calle Ricardo Vázquez Prada / Cai Ricardo Vázquez Prada,
791121,road,"Calle Ricardo Vázquez Prada / Cai Ricardo Vázquez Prada, 33013 Oviedo, Spain",33013,Oviedo,,,La Ería,,,,Calle Ricardo Vázquez Prada / Cai Ricardo Vázquez Prada,
791123,road,"unnamed road, 33936 Siero, Spain",33936,Siero,,,,,,L'Escobal,unnamed road,
791124,road,"unnamed road, 33740 Tapia de Casariego, Spain",33740,,,,,,Tapia de Casariego,El Viso,unnamed road,
791126,road,"Carretera Llovio - Canero, 33157 Cudillero, Spain",33157,Cudillero,,,,,,Castañeras,Carretera Llovio - Canero,N-632a
791127,building,"Calle Villafría, 15, 33008 Oviedo, Spain",33008,Oviedo,,,Villafría,,,,Calle Villafría,
791128,road,"Calle Ricardo Vázquez Prada / Cai Ricardo Vázquez Prada, 33013 Oviedo, Spain",33013,Oviedo,,,La Ería,,,,Calle Ricardo Vázquez Prada / Cai Ricardo Vázquez Prada,
791129,road,"Calle Ricardo Vázquez Prada / Cai Ricardo Vázquez Prada, 33013 Oviedo, Spain",33013,Oviedo,,,La Ería,,,,Calle Ricardo Vázquez Prada / Cai Ricardo Vázquez Prada,
791130,road,"N-634R, 33580 Siero, Spain",33580,Siero,,,,,Siero,Les Faces,N-634R,N-634R
791131,road,"N-634R, 33580 Siero, Spain",33580,Siero,,,,,Siero,Les Faces,N-634R,N-634R
791132,road,"N-634R, 33580 Siero, Spain",33580,Siero,,,,,Siero,Les Faces,N-634R,N-634R
791133,road,"N-634R, 33580 Siero, Spain",33580,Siero,,,,,Siero,Les Faces,N-634R,N-634R
791134,road,"Calle Hornos Altos, 33900 Llangréu / Langreo, Spain",33900,,,,,Llangréu / Langreo,,La Capilla (La Felguera),Calle Hornos Altos,
791135,road,"Carretera de Gijón a Langreo, 33939 Llangréu / Langreo, Spain",33939,,,,,Llangréu / Langreo,Llangréu / Langreo,Gargantá,Carretera de Gijón a Langreo,AS-376
791137,road,"Calle Ricardo Vázquez Prada / Cai Ricardo Vázquez Prada, 33013 Oviedo, Spain",33013,Oviedo,,,La Ería,,,,Calle Ricardo Vázquez Prada / Cai Ricardo Vázquez Prada,
791138,road,"unnamed road, 33300 Villaviciosa, Spain",33300,,,,,Villaviciosa,,La Madrera,unnamed road,
791139,road,"unnamed road, 33300 Villaviciosa, Spain",33300,,,,,Villaviciosa,,La Madrera,unnamed road,
791140,road,"unnamed road, 33300 Villaviciosa, Spain",33300,,,,,Villaviciosa,,La Madrera,unnamed road,
791141,road,"unnamed road, 33300 Villaviciosa, Spain",33300,,,,,Villaviciosa,,La Madrera,unnamed road,
791142,road,"Carretera Alto La Llama - Colunga, 33320 Colunga, Spain",33320,,,,,,Colunga,Carrandi,Carretera Alto La Llama - Colunga,CL-2
791143,road,"Carretera Alto La Llama - Colunga, 33320 Colunga, Spain",33320,,,,,,Colunga,Carrandi,Carretera Alto La Llama - Colunga,CL-2
791145,road,"unnamed road, 33411 Illas, Spain",33411,Illas,,,,,Illas,Pidri,unnamed road,
791146,transportation,"parada de ciañu, Calle Marqués de San Feliz, 33909 Llangréu / Langreo, Spain",33909,,,El Pompián,Ciañu,Llangréu / Langreo,,,Calle Marqués de San Feliz,
791148,road,"Calle Marcelino Suárez, 33013 Oviedo, Spain",33013,Oviedo,,,L'Argañosa,,,,Calle Marcelino Suárez,
791150,road,"Camino de Miranda - Valparaíso, 33410 Avilés, Spain",33410,,,,,Avilés,,L'Aceba,Camino de Miranda - Valparaíso,
791151,road,"Avenida del Nalón, 33940 Samartín del Rei Aurelio, Spain",33940,,,,L'Entregu / El Entrego,Samartín del Rei Aurelio,,,Avenida del Nalón,
791152,road,"unnamed road, 33610 Mieres, Spain",33610,Mieres,,La Felguera (Turón),,,Mieres,El Cuitu,unnamed road,
791154,road,"Estación de Avilés, 33400 Avilés, Spain",33400,,,El Parrocho,Sabugo,Avilés,,,Estación de Avilés,
791157,road,"unnamed road, 33686 Aller, Spain",33686,Aller,,,,,Aller,Rozá,unnamed road,
791159,outdoors/recreation,"La Barganiza, Carretera de Pruvia a Noreña, 33423 Siero, Spain",33423,Siero,,,,,,La Barganiza,Carretera de Pruvia a Noreña,
791161,building,"Calle Médico Francisco Gomez, 7, 33740 Tapia de Casariego, Spain",33740,,,,,,Tapia de Casariego,El Viso,Calle Médico Francisco Gomez,
791162,building,"Calle Melquiades Álvarez, 40, 33930 Llangréu / Langreo, Spain",33930,,,Barrio de San José,La Felguera,Llangréu / Langreo,,,Calle Melquiades Álvarez,
791165,road,"unnamed road, 33825 Las Regueras, Spain",33825,Las Regueras,,,,,,Premoñu,unnamed road,
791166,road,"unnamed road, 33825 Las Regueras, Spain",33825,Las Regueras,,,,,,Premoñu,unnamed road,
791167,road,"unnamed road, 33825 Las Regueras, Spain",33825,Las Regueras,,,,,,Premoñu,unnamed road,
791168,road,"unnamed road, 33825 Las Regueras, Spain",33825,Las Regueras,,,,,,Premoñu,unnamed road,
791169,road,"unnamed road, 33825 Las Regueras, Spain",33825,Las Regueras,,,,,,Premoñu,unnamed road,
791173,road,"unnamed road, 33980 Laviana, Spain",33980,Laviana,,,,Pola de Laviana,,,unnamed road,
791174,building,"Carretera de la Carbonera, 16, 33210 Gijón, Spain",33210,Gijón,Distrito Llano,,,,,,Carretera de la Carbonera,
791175,road,"Carretera Cangas de Onís - Panes, 33589 Cangas de Onís, Spain",33589,Cangas de Onís,,,,,,Celoriu,Carretera Cangas de Onís - Panes,AS-114
791176,road,"Calle Curion, 33700 Valdés, Spain",33700,Valdés,,El Chanu,,Luarca / Ḷḷuarca,,Ribadebaxu,Calle Curion,
791178,road,"Calle Puerto de Pajares, 33980 Laviana, Spain",33980,Laviana,,Solavega,,Pola de Laviana,,,Calle Puerto de Pajares,
791179,road,"PI-13, Piloña, Spain",,Piloña,,,,,,Caldevilla (Sebares),PI-13,PI-13
791180,road,"unnamed road, 33820 Grau / Grado, Spain",33820,,,,,Grau / Grado,,Cuetu,unnamed road,
791181,road,"Senda del Oso, 33114 Proaza, Spain",33114,,,,,,Proaza,Pumariéu,Senda del Oso,
791183,road,"unnamed road, 33126 Soto del Barco, Spain",33126,Soto del Barco,,,,,,La Corrada,unnamed road,
791184,building,"Cai La Estación / Calle La Estación, 6, 33400 Avilés, Spain",33400,,,El Parrocho,Sabugo,Avilés,,,Cai La Estación / Calle La Estación,
791185,building,"Cai La Estación / Calle La Estación, 6, 33400 Avilés, Spain",33400,,,El Parrocho,Sabugo,Avilés,,,Cai La Estación / Calle La Estación,
791186,building,"Cai Cuadonga, 9, 33600 Mieres, Spain",33600,Mieres,,El Poliar,,,,La Fonte Les Xanes,Cai Cuadonga,
791187,commerce,"Bar Marios, Carretera Irún - Santiago, 33850 Salas, Spain",33850,,,,,Salas,,Cornellana / Corniana,Carretera Irún - Santiago,
791194,road,"Estación de Avilés, 33400 Avilés, Spain",33400,,,El Parrocho,Sabugo,Avilés,,,Estación de Avilés,
791195,building,"Calle Siglo XX, 18, 33208 Gijón, Spain",33208,Gijón,Distrito Llano,,,,,,Calle Siglo XX,
791196,road,"Calle Luis Hauzeur, 33405 Castrillón, Spain",33405,Castrillón,,,Salinas,Piedrasblancas,,,Calle Luis Hauzeur,
791200,road,"unnamed road, 33100 Oviedo, Spain",33100,Oviedo,,Grupo Coronel Esteban,,,,Sotu,unnamed road,
791204,unknown,"Molín de Piedrapico, RI-6, 33160 Riosa, Spain",33160,Riosa,,,,,Riosa,Nixeres,RI-6,
791205,road,"Estación de Avilés, 33400 Avilés, Spain",33400,,,El Parrocho,Sabugo,Avilés,,,Estación de Avilés,
791206,road,"Estación de Avilés, 33400 Avilés, Spain",33400,,,El Parrocho,Sabugo,Avilés,,,Estación de Avilés,
791208,road,"Estación de Avilés, 33400 Avilés, Spain",33400,,,El Parrocho,Sabugo,Avilés,,,Estación de Avilés,
791210,health,"Balsera, Calle Fernández Balsera, 14-16, 33402 Avilés, Spain",33402,,,,Sabugo,Avilés,,,Calle Fernández Balsera,
791531,road,"Calle de los Parrales, 37650 Las Casas del Conde, Spain",37650,,,,,,Las Casas del Conde,,Calle de los Parrales,
791578,building,"Calle Echegaray, 16, 33208 Gijón, Spain",33208,Gijón,Distrito Llano,,,,,,Calle Echegaray,
792132,road,"Calle Regino Escalera, 33180 Noreña, Spain",33180,,,,,,Noreña,,Calle Regino Escalera,
799128,building,"Calle Bermúdez de Castro, 51, 33011 Oviedo, Spain",33011,Oviedo,,,Teatinos,,,,Calle Bermúdez de Castro,
810096,commerce,"Greedy Grill, Avenida de Galicia, 33005 Oviedo, Spain",33005,Oviedo,,,Llamaquique,,,,Avenida de Galicia,
810162,building,"Calle Eleuterio Quintanilla, 38, 33208 Gijón, Spain",33208,Gijón,Distrito Llano,,,,,,Calle Eleuterio Quintanilla,
810780,road,"Calle Oviedo, 33980 Laviana, Spain",33980,Laviana,,Solavega,,Pola de Laviana,,,Calle Oviedo,
813887,building,"Calle Álava, 13, 33210 Gijón, Spain",33210,Gijón,Distrito Sur,,Pumarín,,,,Calle Álava,
814793,building,"Calle General Elorza, 30, 33001 Oviedo, Spain",33001,Oviedo,,,Llamaquique,,,,Calle General Elorza,
814801,road,"unnamed road, 33980 Laviana, Spain",33980,Laviana,,,,,,Muñera,unnamed road,
815084,building,"Calle Eleuterio Quintanilla, 73, 33209 Gijón, Spain",33209,Gijón,Distrito Llano,,,,,,Calle Eleuterio Quintanilla,
815361,road,"Calle Perú, 33213 Gijón, Spain",33213,Gijón,Distrito Oeste,,La Calzada,,,,Calle Perú,
819029,building,"Calle Anselmo Solar, 68, 33204 Gijón, Spain",33204,Gijón,Distrito Este,Les Mestes,Viesques,,,,Calle Anselmo Solar,
822037,road,"Calle Chile, 33011 Oviedo, Spain",33011,Oviedo,,,Montenuño,,,,Calle Chile,
822319,road,"Calle Corredoria Alta, 33011 Oviedo, Spain",33011,Oviedo,,,La Estrecha,,,,Calle Corredoria Alta,AS-381
823020,road,"Calle Noreña, 33010 Oviedo, Spain",33010,Oviedo,,,El Palais,,,,Calle Noreña,
823778,building,"Calle Munilla, 6, 33211 Gijón, Spain",33211,Gijón,Distrito Sur,,Pumarín,,,,Calle Munilla,
826094,building,"Calle Poeta Alfonso Camín, 6D, 33209 Gijón, Spain",33209,Gijón,Distrito Llano,,,,,,Calle Poeta Alfonso Camín,
826134,road,"Carretera Irún - Santiago, 33746 El Franco, Spain",33746,El Franco,,,,,El Franco,Pedra,Carretera Irún - Santiago,N-634
826863,road,"Camín de Los Caleros, 33210 Gijón, Spain",33210,Gijón,Distrito Sur,,Montevil,,,,Camín de Los Caleros,
827749,building,"Calle Félix Aramburu, 5, 33007 Oviedo, Spain",33007,Oviedo,,,Llamaquique,,,,Calle Félix Aramburu,
827992,road,"unnamed road, 33394 Gijón, Spain",33394,Gijón,Distrito Rural,,,,,Robleo,unnamed road,
828196,road,"unnamed road, 33174 Oviedo, Spain",33174,Oviedo,,,,,,Sograndio Baxo,unnamed road,
829667,road,"unnamed road, 33204 Gijón, Spain",33204,Gijón,Distrito Este,Les Mestes,Viesques,,,,unnamed road,
829671,road,"unnamed road, 33204 Gijón, Spain",33204,Gijón,Distrito Este,Les Mestes,Viesques,,,,unnamed road,
829942,road,"Camino del Santuario, 33210 Gijón, Spain",33210,Gijón,Distrito Sur,,Contrueces,,,,Camino del Santuario,
829947,road,"Carretera del Obispo, 33210 Gijón, Spain",33210,Gijón,Distrito Sur,,Contrueces,,,,Carretera del Obispo,
864829,road,"unnamed road, 33300 Villaviciosa, Spain",33300,,,,,Villaviciosa,,Lugás,unnamed road,
865059,road,"unnamed road, 33314 Villaviciosa, Spain",33314,,,,,Villaviciosa,,Silva,unnamed road,
879291,road,"unnamed road, 33190 Las Regueras, Spain",33190,Las Regueras,,,,,,Mariñes,unnamed road,
886293,commerce,"TOCbikes, Calle Postigo Bajo, 50, 33009 Oviedo, Spain",33009,Oviedo,,Colonia Marqués de San Feliz,El Postigo,,,,Calle Postigo Bajo,
897274,building,"Calle del Piles, 13, 33204 Gijón, Spain",33204,Gijón,Distrito Este,El Bibio,El Coto,,,,Calle del Piles,
898344,commerce,"Restaurante El Regueral, Calle Pelayo, 15, 33690 Llanera, Spain",33690,Llanera,,,Lugo de Llanera,,,,Calle Pelayo,
898820,road,"Camín de Caldones, 33394 Gijón, Spain",33394,Gijón,Distrito Rural,,,,,Caldones,Camín de Caldones,
903998,road,"Avenida del Mar Cantábrico, 33209 Gijón, Spain",33209,Gijón,Distrito Este,,Ceares / Ciares,,,,Avenida del Mar Cantábrico,
906092,road,"unnamed road, 33316 Villaviciosa, Spain",33316,,,,,Villaviciosa,,,unnamed road,
906309,road,"Urbanización Monte Alto, 33012 Oviedo, Spain",33012,Oviedo,,,La Florida,,,,Urbanización Monte Alto,
909777,road,"Camín de Les Cortines, 33394 Gijón, Spain",33394,Gijón,Distrito Rural,,,,,San Pelayo,Camín de Les Cortines,
910977,road,"Caleya del Río, 33394 Gijón, Spain",33394,Gijón,Distrito Rural,Santurio,,,,Carceo (Santurio),Caleya del Río,
913683,building,"Calle Pintor Orlando Pelayo, 15, 33204 Gijón, Spain",33204,Gijón,Distrito Este,El Bibio,El Coto,,,,Calle Pintor Orlando Pelayo,
913946,building,"Calle Río San Pedro, 4, 33001 Oviedo, Spain",33001,Oviedo,,,Casco Antiguo,,,,Calle Río San Pedro,
914431,building,"Calle Mariscal Solís, 14, 33012 Oviedo, Spain",33012,Oviedo,,,El Vallobín,,,,Calle Mariscal Solís,
914453,building,"Calle Azcárraga, 17, 33010 Oviedo, Spain",33010,Oviedo,,Colonia Marqués de San Feliz,El Postigo,,,,Calle Azcárraga,
914703,building,"Calle Río Sil, 13, 33210 Gijón, Spain",33210,Gijón,Distrito Sur,,Contrueces,,,,Calle Río Sil,
914753,road,"Calle Fernando Poo, 33213 Gijón, Spain",33213,Gijón,Distrito Oeste,,La Calzada,,,,Calle Fernando Poo,
915316,road,"Calle Barrizales, 47686 Melgar de Arriba, Spain",47686,,,,,,Melgar de Arriba,,Calle Barrizales,
915338,road,"AS-332, 33310 Villaviciosa, Spain",33310,,,,,Villaviciosa,,La Infiesta,AS-332,
917783,road,"Carretera Puertas - Panes, por Villanueva, 33598 Llanes, Spain",33598,,,,,Llanes,,La Borbolla,"Carretera Puertas - Panes, por Villanueva",AS-343
919206,commerce,"Pollería Ramos, Magnus Blikstad, 33271 Gijón, Spain",33271,Gijón,Distrito Centro,,Laviada,,,,Magnus Blikstad,
920014,road,"unnamed road, Colunga, Spain",,,,,,,Colunga,Castiellu de Llue,unnamed road,
923514,road,"Carretera Peruyera - Grandarrasa, 33510 Siero, Spain",33510,Siero,,,,,Siero,Taraña,Carretera Peruyera - Grandarrasa,SI-15
924583,road,"Avenida José Cima, 33429 Oviedo, Spain",33429,Oviedo,,,Colloto / Cualloto,,,,Avenida José Cima,
925473,road,"Carretera de Pravia a Somao, 33120 Pravia, Spain",33120,,,,,Pravia,,Bances,Carretera de Pravia a Somao,AS-368
926684,road,"unnamed road, 33314 Villaviciosa, Spain",33314,,,,,Villaviciosa,,Manzanéu,unnamed road,
926949,road,"Carretera de Gijón a Langreo, 33390 Siero, Spain",33390,Siero,,,,,,Llantones,Carretera de Gijón a Langreo,AS-376
928207,building,"Calle Vicente Jove, 29, 33212 Gijón, Spain",33212,Gijón,Distrito Oeste,,El Natahoyo,,,,Calle Vicente Jove,
951101,road,"Calle Concejo de Teverga, 33204 Gijón, Spain",33204,Gijón,Distrito Este,,Viesques,,,,Calle Concejo de Teverga,
967514,road,"Camin de La Piñera, 33510 Siero, Spain",33510,Siero,,,,,,La Piñera,Camin de La Piñera,
972921,outdoors/recreation,"Area Autocaravanas La Corredoria, Calle Daniel Moyano, 8, 33011 Oviedo, Spain",33011,Oviedo,,,La Corredoria,,,,Calle Daniel Moyano,
973252,commerce,"Muebles FHOA, Calle del General Elorza, 33001 Oviedo, Spain",33001,Oviedo,,Colonia Marqués de San Feliz,Casco Antiguo,,,,Calle del General Elorza,
978205,building,"Calle Emilio Tuya, 47, 33203 Gijón, Spain",33203,Gijón,Distrito Este,El Bibio,L'Arena,,,,Calle Emilio Tuya,
978716,road,"unnamed road, 33990 Caso, Spain",33990,Caso,,,,,,Gobezanes,unnamed road,
978926,road,"unnamed road, 33204 Gijón, Spain",33204,Gijón,Distrito Este,Les Mestes,Viesques,,,,unnamed road,
979679,building,"Avenida de Pablo Iglesias, 36, 33205 Gijón, Spain",33205,Gijón,Distrito Este,,Centro,,,,Avenida de Pablo Iglesias,
989435,road,"Calle Antón de Marirreguera, 33416 Corvera de Asturias, Spain",33416,Corvera de Asturias,,,,,Corvera de Asturias,Santa Cruz,Calle Antón de Marirreguera,
989444,road,"unnamed road, 33190 Las Regueras, Spain",33190,Las Regueras,,,,,,Tamargu,unnamed road,
989707,building,"Calle Santiago de Compostela, 12, 33001 Oviedo, Spain",33001,Oviedo,,,Prados de la Fuente,,,,Calle Santiago de Compostela,
989821,building,"Lugar Rioturbio Nuevo, 15, 33614 Mieres, Spain",33614,Mieres,,,,,Mieres,El Vescón (Santa Rosa),Lugar Rioturbio Nuevo,
990028,road,"Camino Rozaes - Cantu la Teya- La Roza, forma parte del PR-AS-143, 33162 Morcín, Spain",33162,Morcín,,,,,,La Roza,"Camino Rozaes - Cantu la Teya- La Roza, forma parte del PR-AS-143",
990763,building,"Calle Consistorio, 5, 47686 Melgar de Arriba, Spain",47686,,,,,,Melgar de Arriba,,Calle Consistorio,
993087,building,"Calle Uría, 27, 33202 Gijón, Spain",33202,Gijón,Distrito Centro,,Centro,,,,Calle Uría,
995304,building,"Avenida de Pando, 23, 33011 Oviedo, Spain",33011,Oviedo,,Tocote,Pumarín,,,,Avenida de Pando,
998680,road,"unnamed road, Villaviciosa, Spain",,,,,,Villaviciosa,Villaviciosa,La Viña,unnamed road,
998711,road,"unnamed road, 33491 Carreño, Spain",33491,Carreño,,,,,,Bárzana,unnamed road,
1005071,building,"Avenida de la Costa, 53D, 33205 Gijón, Spain",33205,Gijón,Distrito Centro,,Centro,,,,Avenida de la Costa,
1005279,road,"Calle el Campo, Vallecillo, Spain",,,,,,,Vallecillo,,Calle el Campo,
1020267,building,"Calle Ramón y Cajal, 20, 33202 Gijón, Spain",33202,Gijón,Distrito Este,,El Coto,,,,Calle Ramón y Cajal,
1021624,road,"Calle León, Vallecillo, Spain",,,,,,,Vallecillo,,Calle León,
1021874,road,"CB-6, 33310 Cabranes, Spain",33310,Cabranes,,,,,Cabranes,Fresnéu,CB-6,CB-6
1022413,road,"unnamed road, 33660 Mieres, Spain",33660,Mieres,,,,,,Vega de San Pedro,unnamed road,
1022445,road,"Camino del Alto de la Cruz, 33390 Gijón, Spain",33390,Gijón,,,,,,Llantones,Camino del Alto de la Cruz,
1025392,road,"Calle la Cueva, Vallecillo, Spain",,,,,,,Vallecillo,,Calle la Cueva,
1026212,road,"Avenida de La Constitución, 33950 Samartín del Rei Aurelio, Spain",33950,,,El Serrallo,,Samartín del Rei Aurelio,Samartín del Rei Aurelio,El Pontón,Avenida de La Constitución,AS-387
1026258,commerce,"Lupa, Calle Nocedillo, 26, 26140 Lardero, Spain",26140,,,,Villapatro,Lardero,,,Calle Nocedillo,
1026648,road,"Calle Pepe Blanco, 26140 Lardero, Spain",26140,,,Urbanización Las Sabinas,Villapatro,Lardero,,,Calle Pepe Blanco,
1026650,road,"Calle Pepe Blanco, 26140 Lardero, Spain",26140,,,Urbanización Las Sabinas,Villapatro,Lardero,,,Calle Pepe Blanco,
1026654,road,"Calle Pepe Blanco, 26140 Lardero, Spain",26140,,,Urbanización Las Sabinas,Villapatro,Lardero,,,Calle Pepe Blanco,
1026658,road,"Calle Pepe Blanco, 26140 Lardero, Spain",26140,,,Urbanización Las Sabinas,Villapatro,Lardero,,,Calle Pepe Blanco,
1026661,commerce,"Lupa, Calle Nocedillo, 26, 26140 Lardero, Spain",26140,,,,Villapatro,Lardero,,,Calle Nocedillo,
1029205,road,"Calle la Fuente, Vallecillo, Spain",,,,,,,Vallecillo,,Calle la Fuente,
1029742,building,"Cai Escuela Capataces, 34, 33600 Mieres, Spain",33600,Mieres,,La Campeta,,,,La Rotella,Cai Escuela Capataces,
1030858,road,"Calle Langreo, 33980 Laviana, Spain",33980,Laviana,,,,Pola de Laviana,,,Calle Langreo,
1033741,road,"Calle La Argandona, 33205 Gijón, Spain",33205,Gijón,Distrito Centro,,Centro,,,,Calle La Argandona,
1036606,road,"Calle Arquímedes, 33390 Gijón, Spain",33390,Gijón,,,Roces,,,,Calle Arquímedes,
1037601,road,"Camín de L'Arquera, 33392 Gijón, Spain",33392,Gijón,,,,,,Fontaciera,Camín de L'Arquera,
1038175,road,"Camín del Ríu, 33391 Gijón, Spain",33391,Gijón,,Granda,,,,Granda de Baxo,Camín del Ríu,
1038201,natural/water,"Fuente Fombona, Carretera de Posada de Llanera a La Campana, 33424 Llanera, Spain",33424,Llanera,,,,,Llanera,La Bérbola,Carretera de Posada de Llanera a La Campana,
1039334,road,"Calle César Maese Alonso, 33390 Gijón, Spain",33390,Gijón,,,Nuevo Roces,,,,Calle César Maese Alonso,
1039516,commerce,"Centro Comercial, Calle Los Magnolios, 33423 Llanera, Spain",33423,Llanera,,,,,Llanera,Pruvia de Baxo,Calle Los Magnolios,
1039858,building,"Calle Feijoo, 28, 33204 Gijón, Spain",33204,Gijón,Distrito Este,El Bibio,Ceares / Ciares,,,,Calle Feijoo,
1040170,road,"Calle Cervantes, 33206 Gijón, Spain",33206,Gijón,Distrito Centro,,El Carmen,,,,Calle Cervantes,
1041204,road,"Camín de La Cruz, 33392 Gijón, Spain",33392,Gijón,,,,,,Veranes,Camín de La Cruz,
1044331,road,"Camín de La Carbayera, 33394 Gijón, Spain",33394,Gijón,Distrito Rural,,,,,L'Aldea,Camín de La Carbayera,
1044363,road,"Carretera de Nava a Santa Eulalia de Cabranes, 33310 Cabranes, Spain",33310,Cabranes,,,,,,Fresnéu,Carretera de Nava a Santa Eulalia de Cabranes,AS-335
1044682,building,"Edificio Montecristo, Calle Monte Cerráu, 22-24 (A y B), 33006 Oviedo, Spain",33006,Oviedo,,,El Monte Cerráu,,,,Calle Monte Cerráu,
1045194,building,"Calle Nueva, 12, 33900 Llangréu / Langreo, Spain",33900,,,El Pompián,Ciañu,Llangréu / Langreo,,,Calle Nueva,
1045195,building,"Calle Nueva, 12, 33900 Llangréu / Langreo, Spain",33900,,,El Pompián,Ciañu,Llangréu / Langreo,,,Calle Nueva,
1047421,road,"unnamed road, 33954 Llanes, Spain",33954,,,,,Llanes,,Naves,unnamed road,
1047425,road,"unnamed road, 33935 Llangréu / Langreo, Spain",33935,,,,,Llangréu / Langreo,Llangréu / Langreo,El Molín del Rozóu,unnamed road,
1047432,road,"unnamed road, 33954 Llanes, Spain",33954,,,,,Llanes,,Naves,unnamed road,
1047667,road,"Carretera de Sahagún a Renedo de Valderaduey, 24320 Sahagún, Spain",24320,,,,,Sahagún,,,Carretera de Sahagún a Renedo de Valderaduey,LE-6707
1047704,road,"Calle Fernando Vela, 33080 Oviedo, Spain",33080,Oviedo,,Tocote,El Milán,,,,Calle Fernando Vela,
1049611,road,"Avenida Fernando de Castro, 24320 Sahagún, Spain",24320,,,,,Sahagún,,,Avenida Fernando de Castro,
1050266,road,"Carretera de Villaverde y Careñes, 33314 Villaviciosa, Spain",33314,,,,,Villaviciosa,,,Carretera de Villaverde y Careñes,VV-3
1051604,road,"Calle Ramón y Cajal, 33510 Siero, Spain",33510,Siero,,,,,,Urbanización Verdesur - Les Granxes,Calle Ramón y Cajal,
1051631,road,"Senda verde de La Camocha, 33390 Gijón, Spain",33390,Gijón,,,Roces,,,,Senda verde de La Camocha,
1052332,road,"unnamed road, Villaviciosa, Spain",,,,,,Villaviciosa,,,unnamed road,
1052796,building,"Calle Munilla, 14, 33211 Gijón, Spain",33211,Gijón,Distrito Sur,,Pumarín,,,,Calle Munilla,
1052872,road,"unnamed road, Villaviciosa, Spain",,,,,,Villaviciosa,,Venta les Ranes,unnamed road,
1060729,road,"unnamed road, 33350 Siero, Spain",33350,Siero,,,,,Siero,Barbales,unnamed road,
1060731,building,"Avenida de los Monumentos, 21, 33012 Oviedo, Spain",33012,Oviedo,,,Loma del Canto,,,,Avenida de los Monumentos,
1061174,road,"unnamed road, 33510 Noreña, Spain",33510,,,,,,Noreña,La Carril,unnamed road,
1061192,road,"unnamed road, 33510 Noreña, Spain",33510,,,,,,Noreña,La Carril,unnamed road,
1061885,road,"CB-6, 33310 Cabranes, Spain",33310,Cabranes,,,,,Cabranes,Fresnéu,CB-6,CB-6
1061916,road,"unnamed road, 33006 Oviedo, Spain",33006,Oviedo,,,El Monte Cerráu,,,,unnamed road,
1063749,commerce,"Brios, Calle Uría / Cai Uría, 3, 33003 Oviedo, Spain",33003,Oviedo,,,Casco Antiguo,,,,Calle Uría / Cai Uría,
1063939,building,"La Casona, Calle Marqués de Argudín, 33125 Soto del Barco, Spain",33125,Soto del Barco,,El Maumáu,,,Soto del Barco,La Calea,Calle Marqués de Argudín,
1063973,building,"Calle Ceriñola, 25, 33212 Gijón, Spain",33212,Gijón,Distrito Oeste,,Santa Olaya,,,,Calle Ceriñola,
1063979,road,"Calle Ecuador, 33213 Gijón, Spain",33213,Gijón,Distrito Oeste,,La Calzada,,,,Calle Ecuador,
1064015,road,"Camín de la Ponderosa, 33392 Gijón, Spain",33392,Gijón,,,,,,Riera,Camín de la Ponderosa,
1064362,road,"unnamed road, 33683 Mieres, Spain",33683,Mieres,,,,,Mieres,Les Colomines,unnamed road,
1064962,road,"Avenida de Olivares, 33013 Oviedo, Spain",33013,Oviedo,,,Olivares,,,,Avenida de Olivares,
1065079,building,"Calle Costa Rica, 14, 33213 Gijón, Spain",33213,Gijón,Distrito Oeste,,La Calzada,,,,Calle Costa Rica,
1066155,building,"Terrazas de Roces, Calle Benito Otero Martínez, 365 - 385 - 405, 33210 Gijón, Spain",33210,Gijón,,,Nuevo Roces,,,,Calle Benito Otero Martínez,
1066207,road,"Ronda Sur, 33008 Oviedo, Spain",33008,Oviedo,,,Fozaneldi,,,,Ronda Sur,N-630
1066418,road,"Calle Arquímedes, 33390 Gijón, Spain",33390,Gijón,,,Roces,,,,Calle Arquímedes,
1066477,road,"unnamed road, 33170 Oviedo, Spain",33170,Oviedo,,,,,,El Caleyu,unnamed road,
1067813,building,"Magnus Blikstad, 74, 33207 Gijón, Spain",33207,Gijón,Distrito Sur,,Polígono de Pumarín,,,,Magnus Blikstad,
1067824,education,"Colegio Público Asturias, Calle Puerto de Pajares, 33207 Gijón, Spain",33207,Gijón,Distrito Sur,,Polígono de Pumarín,,,,Calle Puerto de Pajares,
1068491,road,"unnamed road, 33199 Siero, Spain",33199,Siero,,,,,,Fonciello,unnamed road,
1069899,road,"Camín del Granxu, 33390 Gijón, Spain",33390,Gijón,,,,,,Mareo de Riba,Camín del Granxu,
1069914,road,"Carretera de Pruvia a Noreña, 33423 Siero, Spain",33423,Siero,,,,,,Castañera,Carretera de Pruvia a Noreña,AS-384
1069919,road,"unnamed road, 33423 Siero, Spain",33423,Siero,,,,,,La Barganiza,unnamed road,
1069923,road,"unnamed road, 33423 Siero, Spain",33423,Siero,,,,,,La Barganiza,unnamed road,
1071570,building,"Calle Eleuterio Quintanilla, 24, 33208 Gijón, Spain",33208,Gijón,Distrito Llano,,,,,,Calle Eleuterio Quintanilla,
1077875,road,"unnamed road, 33180 Siero, Spain",33180,Siero,,,,,,Pañeda Nueva,unnamed road,
1077932,road,"N-120a, 26250 Santo Domingo de la Calzada, Spain",26250,,,,,Santo Domingo de la Calzada,,,N-120a,N-120a
1080407,road,"Carretera de Ujo al Puerto de San Isidro, 33681 Aller, Spain",33681,Aller,,,,,Aller,El Pino,Carretera de Ujo al Puerto de San Isidro,AS-112
1080423,road,"Camín de los Hermanos Canal, 33350 Gijón, Spain",33350,Gijón,,Granda,,,Gijón,Granda de Riba,Camín de los Hermanos Canal,
1080424,road,"Camín de los Hermanos Canal, 33350 Gijón, Spain",33350,Gijón,,Granda,,,Gijón,Granda de Riba,Camín de los Hermanos Canal,
1080425,road,"Camín de los Hermanos Canal, 33350 Gijón, Spain",33350,Gijón,,Granda,,,Gijón,Granda de Riba,Camín de los Hermanos Canal,
1080480,commerce,"Bicicleta Salvador Bermúdez, Calle del Postigo Alto, 1, 33009 Oviedo, Spain",33009,Oviedo,,Colonia Marqués de San Feliz,Casco Antiguo,,,,Calle del Postigo Alto,
1080484,road,"Carretera de Gijón a Langreo, 33390 Siero, Spain",33390,Siero,,,,,,Llantones,Carretera de Gijón a Langreo,AS-376
1080708,road,"Camín de Sotiello a Porceyo, 33393 Gijón, Spain",33393,Gijón,,,,,,Sotiello,Camín de Sotiello a Porceyo,
1080715,road,"Calle Domingo Juliana, 33213 Gijón, Spain",33213,Gijón,Distrito Oeste,,La Calzada,,,,Calle Domingo Juliana,
1087514,road,"Avenida de la Libertad, 33980 Laviana, Spain",33980,Laviana,,Solavega,,Pola de Laviana,,,Avenida de la Libertad,AS-387
1088317,road,"Calle de La Fuente, 33750 El Franco, Spain",33750,El Franco,,,,,El Franco,Llóngara,Calle de La Fuente,
1088378,road,"Cuesta Eria, 33429 Oviedo, Spain",33429,Oviedo,,,Colloto / Cualloto,,,,Cuesta Eria,
1088383,road,"Camín de La Coría a Santurio, 33204 Gijón, Spain",33204,Gijón,,Castiello Bernueces,,,,Vaones,Camín de La Coría a Santurio,
1088390,road,"Calle Nicaragua, 33213 Gijón, Spain",33213,Gijón,Distrito Oeste,,La Calzada,,,,Calle Nicaragua,
1088615,road,"unnamed road, 33393 Gijón, Spain",33393,Gijón,,,,,,Sotiello,unnamed road,
1088617,road,"Camín de Los Pedregales, 33393 Gijón, Spain",33393,Gijón,,,,,,Sotiello,Camín de Los Pedregales,
1088619,road,"Calle Les Comadres, 33510 Siero, Spain",33510,Siero,,,,,,,Calle Les Comadres,
1088621,road,"unnamed road, 33392 Gijón, Spain",33392,Gijón,,,,,,La Robellada,unnamed road,
1088624,road,"Camino de Los Caleros, 33210 Gijón, Spain",33210,Gijón,Distrito Sur,,Contrueces,,,,Camino de Los Caleros,
1088626,road,"Carretera del Rayo, 33010 Oviedo, Spain",33010,Oviedo,,,Mercadín,,,,Carretera del Rayo,
1088632,building,"1370 Route du Fornial, 24390 Hautefort, France",24390,Hautefort,,,,,,,Route du Fornial,
1088648,building,"Asesores Solé del Valle, Calle del Sol, 46, 33300 Villaviciosa, Spain",33300,,,,,Villaviciosa,,,Calle del Sol,
1088654,road,"Plaza Mayor, 24320 Sahagún, Spain",24320,,,,,Sahagún,,,Plaza Mayor,
1089004,building,"Avenida de la Constitución, 14, 33207 Gijón, Spain",33207,Gijón,Distrito Centro,,Laviada,,,,Avenida de la Constitución,
1089261,building,"Calle Joaquín Solís, 37, 33209 Gijón, Spain",33209,Gijón,Distrito Este,,Ceares / Ciares,,,,Calle Joaquín Solís,
1089558,road,"Calle la Iglesia, 24206 Villabraz, Spain",24206,,,,,,Villabraz,,Calle la Iglesia,
1091544,road,"unnamed road, 33315 Villaviciosa, Spain",33315,,,,,Villaviciosa,,Olivar,unnamed road,
1091574,building,"Calle San José de Calasanz, 4, 33004 Oviedo, Spain",33004,Oviedo,,,Prados de la Fuente,,,,Calle San José de Calasanz,
1092089,education,"Colegio Virgen Reina, Calle Avilés / Cai Avilés, 18, 33207 Gijón, Spain",33207,Gijón,Distrito Centro,,Laviada,,,,Calle Avilés / Cai Avilés,
1092105,road,"Calle Álvaro de Albornoz, 33271 Gijón, Spain",33271,Gijón,Distrito Centro,,Laviada,,,,Calle Álvaro de Albornoz,
1092327,outdoors/recreation,"La Barganiza, Carretera de Pruvia a Noreña, 33423 Siero, Spain",33423,Siero,,,,,,La Barganiza,Carretera de Pruvia a Noreña,
1092337,outdoors/recreation,"La Barganiza, Carretera de Pruvia a Noreña, 33423 Siero, Spain",33423,Siero,,,,,,La Barganiza,Carretera de Pruvia a Noreña,
1092341,building,"Paseo de la Infancia, 2, 33206 Gijón, Spain",33206,Gijón,Distrito Centro,,El Carmen,,,,Paseo de la Infancia,
1092344,outdoors/recreation,"La Barganiza, Carretera de Pruvia a Noreña, 33423 Siero, Spain",33423,Siero,,,,,,La Barganiza,Carretera de Pruvia a Noreña,
1094214,road,"Carretera de Santullano a Marinas, 33190 Las Regueras, Spain",33190,Las Regueras,,,,,Las Regueras,Andayón,Carretera de Santullano a Marinas,
1094218,road,"Camín de Granda a Contrueces, 33350 Gijón, Spain",33350,Gijón,,Granda,,,Gijón,Granda de Riba,Camín de Granda a Contrueces,
1094239,building,"Calle Gozón, 25, 33012 Oviedo, Spain",33012,Oviedo,,,La Florida,,,,Calle Gozón,
1094483,road,"Camín de La Roza a Culumbiellos, 33393 Gijón, Spain",33393,Gijón,,,,,,Cenero,Camín de La Roza a Culumbiellos,
1094993,road,"Carretera Santo Domingo-Badarán, 26258 Cirueña, Spain",26258,,,,,,Cirueña,,Carretera Santo Domingo-Badarán,LR-204
1094994,road,"unnamed road, 33480 Llanera, Spain",33480,Llanera,,,,,,Villabona,unnamed road,
1095009,education,"Instituto de Educación Secundaria La Ería, Calle de la Regenta, 4, 33006 Oviedo, Spain",33006,Oviedo,,,La Ería,,,,Calle de la Regenta,
1095229,road,"Carretera Santo Domingo-Badarán, 26258 Cirueña, Spain",26258,,,,,,Cirueña,,Carretera Santo Domingo-Badarán,LR-204
1095284,road,"Carretera Santo Domingo-Badarán, 26258 Cirueña, Spain",26258,,,,,,Cirueña,,Carretera Santo Domingo-Badarán,LR-204
1095290,road,"Carretera Santo Domingo-Badarán, 26258 Cirueña, Spain",26258,,,,,,Cirueña,,Carretera Santo Domingo-Badarán,LR-204
1095293,road,"Carretera Santo Domingo-Badarán, 26258 Cirueña, Spain",26258,,,,,,Cirueña,,Carretera Santo Domingo-Badarán,LR-204
1095595,building,"Calle Don Quijote, 26, 33204 Gijón, Spain",33204,Gijón,Distrito Este,Les Mestes,Viesques,,,,Calle Don Quijote,
1095634,road,"unnamed road, 33492 Carreño, Spain",33492,Carreño,,,,,,Otero,unnamed road,
1095635,building,"Calle Gozón, 27, 33012 Oviedo, Spain",33012,Oviedo,,,La Florida,,,,Calle Gozón,
1095778,building,"Cruz Roja Española, Cai Ramón y Cajal, 33600 Mieres, Spain",33600,Mieres,,Barrio de Santa Marina,,Mieres del Camín,,El Cargaeru,Cai Ramón y Cajal,
1096627,road,"Calle Dos de Mayo, 33212 Gijón, Spain",33212,Gijón,Distrito Oeste,,El Natahoyo,,,,Calle Dos de Mayo,
1096675,road,"Carretera La Caizuela - Pixil, 33411 Illas, Spain",33411,Illas,,,,,Illas,Pidri,Carretera La Caizuela - Pixil,IA-2
1099586,road,"Calle Puente Viejo, 33840 Somiedo, Spain",33840,Somiedo,,,,,Somiedo,,Calle Puente Viejo,
1099774,building,"Camín de los Geranios, 205, 33394 Gijón, Spain",33394,Gijón,Distrito Rural,Somió,,,,,Camín de los Geranios,
1099788,road,"unnamed road, 33174 Oviedo, Spain",33174,Oviedo,,,,,,La Martínez,unnamed road,
1101025,road,"unnamed road, 26258 Cirueña, Spain",26258,,,,,,Cirueña,Ciriñuela,unnamed road,
1101026,road,"unnamed road, 26258 Cirueña, Spain",26258,,,,,,Cirueña,Ciriñuela,unnamed road,
1101030,road,"unnamed road, 26258 Cirueña, Spain",26258,,,,,,Cirueña,Ciriñuela,unnamed road,
1101031,road,"unnamed road, 26258 Cirueña, Spain",26258,,,,,,Cirueña,Ciriñuela,unnamed road,
1101032,road,"unnamed road, 26258 Cirueña, Spain",26258,,,,,,Cirueña,Ciriñuela,unnamed road,
1101295,road,"Calle San Lorenzo, 24765 Villamontán de la Valduerna, Spain",24765,,,,,,Villamontán de la Valduerna,Valle de la Valduerna,Calle San Lorenzo,
1101302,road,"Camín de Piñera de Abajo, 33392 Gijón, Spain",33392,Gijón,,,,,,Piñera,Camín de Piñera de Abajo,
1101383,health,"Centro de Salud de Sahagún, Avenida de la Constitución, 10, 24320 Sahagún, Spain",24320,,,,,Sahagún,,,Avenida de la Constitución,
1101518,road,"Camín de L'Arquera, 33392 Gijón, Spain",33392,Gijón,,,,,,Fontaciera,Camín de L'Arquera,
1101523,road,"unnamed road, 33190 Las Regueras, Spain",33190,Las Regueras,,,,,,Mariñes,unnamed road,
1101566,road,"Calle Domingo Rodríguez, 33100 Oviedo, Spain",33100,Oviedo,,Grupo Coronel Esteban,Trubia,,,,Calle Domingo Rodríguez,
1102031,road,"unnamed road, 33328 Colunga, Spain",33328,,,,,,Colunga,Llue,unnamed road,
1102352,road,"unnamed road, 26142 Villamediana de Iregua, Spain",26142,,,,,Villamediana de Iregua,,,unnamed road,
1102805,road,"unnamed road, 33294 Gijón, Spain",33294,Gijón,Distrito Rural,,,,,Castañera,unnamed road,
1103053,road,"N-632, 33343 Caravia, Spain",33343,Caravia,,,,,,Duesos,N-632,N-632
1103065,travel/tourism,"Hostal La Codorniz, Avenida de la Constitución, 97, 24320 Sahagún, Spain",24320,,,,,Sahagún,,,Avenida de la Constitución,
1109322,road,"Camín de Las Presas, 33393 Gijón, Spain",33393,Gijón,,,,,,La Cerca Baxo,Camín de Las Presas,
1115371,road,"Calle La Cruz, 33440 Gozón, Spain",33440,Gozón,,La Vallina,,Luanco / Lluanco,,Llegua,Calle La Cruz,AS-238
1115424,road,"Carretera Avilés - Callezuela, 33410 Avilés, Spain",33410,,,,,Avilés,,Castañeda,Carretera Avilés - Callezuela,AS-321
1121344,road,"unnamed road, Colunga, Spain",,,,,,,Colunga,Castiellu de Llue,unnamed road,
1127196,road,"Calle José María Fernández Ladreda, 33909 Llangréu / Langreo, Spain",33909,,,El Pompián,Ciañu,Llangréu / Langreo,,,Calle José María Fernández Ladreda,
1127207,road,"Camino las Bodegas, 26141 Alberite, Spain",26141,,,,,,Alberite,,Camino las Bodegas,
1127228,road,"Camino las Bodegas, 26141 Alberite, Spain",26141,,,,,,Alberite,,Camino las Bodegas,
1127229,road,"Camino las Bodegas, 26141 Alberite, Spain",26141,,,,,,Alberite,,Camino las Bodegas,
1127242,road,"Camino las Bodegas, 26141 Alberite, Spain",26141,,,,,,Alberite,,Camino las Bodegas,
1127256,road,"unnamed road, 26326 Villar de Torre, Spain",26326,,,,,,Villar de Torre,,unnamed road,
1127294,road,"Carretera Avilés - Callezuela, 33410 Avilés, Spain",33410,,,,,Avilés,,Castañeda,Carretera Avilés - Callezuela,AS-321
1145074,building,"Cai Leopoldo Alas Clarín, 25, 33600 Mieres, Spain",33600,Mieres,,La Campeta,,,,El Plano,Cai Leopoldo Alas Clarín,
1145075,building,"Cai Leopoldo Alas Clarín, 25, 33600 Mieres, Spain",33600,Mieres,,La Campeta,,,,El Plano,Cai Leopoldo Alas Clarín,
1145076,building,"Avenida de Portugal, 26, 33207 Gijón, Spain",33207,Gijón,Distrito Centro,,Laviada,,,,Avenida de Portugal,
1150918,road,"Plaza José González Bernardino, 33001 Oviedo, Spain",33001,Oviedo,,Tocote,Pumarín,,,,Plaza José González Bernardino,
1150953,building,"Calle Usandizaga, 2, 33204 Gijón, Spain",33204,Gijón,Distrito Este,El Bibio,El Coto,,,,Calle Usandizaga,
1168445,road,"unnamed road, 33429 Siero, Spain",33429,Siero,,,,,Siero,La Fresnera,unnamed road,
1180167,road,"Calle Vegarronda, 33790 Navia, Spain",33790,,,,,Navia,Navia,Vegadecima,Calle Vegarronda,
1186057,road,"unnamed road, 33491 Carreño, Spain",33491,Carreño,,,,Candás,,Dormón,unnamed road,
1191898,road,"unnamed road, 33691 Carreño, Spain",33691,Carreño,,,,,,El Valle,unnamed road,
1191961,road,"Camín de la Cerca Baxo, 33393 Gijón, Spain",33393,Gijón,,,,,,La Cerca Riba,Camín de la Cerca Baxo,
1215243,road,"unnamed road, Colunga, Spain",,,,,,,Colunga,Castiellu de Llue,unnamed road,
1221164,road,"unnamed road, 33114 Proaza, Spain",33114,,,,,,Proaza,Treslavilla / Traslavilla,unnamed road,
1221179,road,"Calle Doctor Carlos Prieto, 33290 Gijón, Spain",33290,Gijón,Distrito Oeste,,Jove / Xove,,,,Calle Doctor Carlos Prieto,
1227150,transportation,"El Puente de la Chalana, 252, 33980 Laviana, Spain",33980,Laviana,,Solavega,,,,La Chalana,252,
1227231,road,"CB-2, 33310 Cabranes, Spain",33310,Cabranes,,,,,Cabranes,Bospolín,CB-2,CB-2
1227234,road,"Camín de Faro, 33394 Gijón, Spain",33394,Gijón,Distrito Rural,,,,,El Pedroco,Camín de Faro,
1233135,road,"Camín de La Ería, 33394 Gijón, Spain",33394,Gijón,Distrito Rural,,,,,L'Aldea,Camín de La Ería,
1239169,building,"Calle El Cortijo, 11, 33212 Gijón, Spain",33212,Gijón,Distrito Oeste,,Santa Olaya,,,,Calle El Cortijo,
1250955,road,"unnamed road, 33919 Oviedo, Spain",33919,Oviedo,,El Valle,,,Oviedo,La Pandiella,unnamed road,
1258240,road,"Carretera Venta de las Ranas-Villaviciosa, por El Gobernador, 33314 Villaviciosa, Spain",33314,,,,,Villaviciosa,,Venta les Ranes,"Carretera Venta de las Ranas-Villaviciosa, por El Gobernador",AS-256
1264177,road,"unnamed road, 33392 Siero, Spain",33392,Siero,,,,,,Picalloréu,unnamed road,
1270173,building,"Calle Luarca / Cai Ḷḷuarca, 19, 33207 Gijón, Spain",33207,Gijón,Distrito Sur,,Polígono de Pumarín,,,,Calle Luarca / Cai Ḷḷuarca,
1270184,road,"LN-11, 33692 Lena, Spain",33692,,,,,Lena,,Parana,LN-11,LN-11
1270190,road,"Carretera El Gobernador - El Puntal, por Tazones, 33315 Villaviciosa, Spain",33315,,,,,Villaviciosa,,Requejo - Requexu,"Carretera El Gobernador - El Puntal, por Tazones",
1270202,road,"unnamed road, 33935 Siero, Spain",33935,Siero,,,,,,Areñes,unnamed road,
1276167,road,"Camin del Estanco, 33394 Gijón, Spain",33394,Gijón,Distrito Rural,Cabueñes,,,,La Pontica,Camin del Estanco,
1293802,road,"Carretera de Quintes, 33294 Villaviciosa, Spain",33294,,,,,Villaviciosa,Villaviciosa,Quintes,Carretera de Quintes,VV-2
1293826,building,"Calle Gloria Fuertes, 10, 33204 Gijón, Spain",33204,Gijón,Distrito Este,,Viesques,,,,Calle Gloria Fuertes,
1299735,road,"unnamed road, 33404 Castrillón, Spain",33404,Castrillón,,,,,,Orbón,unnamed road,
1299766,road,"unnamed road, 33315 Villaviciosa, Spain",33315,,,Gema del Mar,,Villaviciosa,,El Puntal,unnamed road,
1299790,road,"Calle Manuel R. Álvarez, 33213 Gijón, Spain",33213,Gijón,Distrito Oeste,,La Calzada,,,,Calle Manuel R. Álvarez,
1311863,building,"9, 33491 Carreño, Spain",33491,Carreño,,,,Candás,,Perán,,
1311867,road,"Calle Juan Guaza, 24320 Sahagún, Spain",24320,,,,,Sahagún,,,Calle Juan Guaza,
1311875,road,"unnamed road, 33870 Tineo, Spain",33870,,,,,Tineo,,,unnamed road,
1318095,building,"9, 33491 Carreño, Spain",33491,Carreño,,,,Candás,,Perán,,
1318101,building,"9, 33491 Carreño, Spain",33491,Carreño,,,,Candás,,Perán,,
1318124,building,"Calle Montes del Sueve, 29, 33004 Oviedo, Spain",33004,Oviedo,,,Ciudad Naranco,,,,Calle Montes del Sueve,
1324431,road,"unnamed road, 33114 Proaza, Spain",33114,,,,,,Proaza,Llinares,unnamed road,
1324454,commerce,"Ams, Calle Doctor Severo Ochoa, 27, 33401 Avilés, Spain",33401,,,,El Quirinal,Avilés,,,Calle Doctor Severo Ochoa,
1324481,commerce,"Ultreya, Carretera de Oviedo a Campomanes, 33660 Oviedo, Spain",33660,Oviedo,,,Olloniego / Lluniego,,,,Carretera de Oviedo a Campomanes,
1324486,road,"unnamed road, 33403 Avilés, Spain",33403,,,,La Luz,Avilés,,,unnamed road,
1324576,road,"unnamed road, 33315 Villaviciosa, Spain",33315,,,,,Villaviciosa,,Tazones,unnamed road,
1349275,road,"unnamed road, 33688 Aller, Spain",33688,Aller,,,,,Aller,,unnamed road,
1349277,road,"unnamed road, 33191 Oviedo, Spain",33191,Oviedo,,,,,,Rivero,unnamed road,
1349286,road,"Calle Nicaragua, 33213 Gijón, Spain",33213,Gijón,Distrito Oeste,,La Calzada,,,,Calle Nicaragua,
1349292,road,"Carretera Almuña - Paredes, 33700 Valdés, Spain",33700,Valdés,,,,Luarca / Ḷḷuarca,,Almuña,Carretera Almuña - Paredes,AS-351
1349296,road,"Avenida Principado de Asturias, 33960 Samartín del Rei Aurelio, Spain",33960,,,,,Samartín del Rei Aurelio,Samartín del Rei Aurelio,La Chirente,Avenida Principado de Asturias,AS-387
1355605,road,"Paseo de La Florida, 33013 Oviedo, Spain",33013,Oviedo,,,La Florida,,,,Paseo de La Florida,
1355619,road,"unnamed road, 33314 Villaviciosa, Spain",33314,,,,,Villaviciosa,,Silva,unnamed road,
1385293,building,"Calle Los Campinos, 3, 33205 Gijón, Spain",33205,Gijón,Distrito Centro,,Centro,,,,Calle Los Campinos,
1385527,road,"unnamed road, 33111 Teverga, Spain",33111,Teverga,,,,,,Taxa,unnamed road,
1385713,road,"unnamed road, 33424 Llanera, Spain",33424,Llanera,,,,,,Portiella,unnamed road,
1385953,road,"Calle la Lila, 33001 Oviedo, Spain",33001,Oviedo,,Colonia Marqués de San Feliz,Casco Antiguo,,,,Calle la Lila,
1385955,road,"Carretera de Quintes, 33294 Villaviciosa, Spain",33294,,,,,Villaviciosa,Villaviciosa,Medio,Carretera de Quintes,
1385984,outdoors/recreation,"Gimnasio Yin-Yang, Calle Rafael Sarandeses, 33420 Siero, Spain",33420,Siero,,El Parque,,,Siero,El Carbayu,Calle Rafael Sarandeses,
1387117,road,"Les Xuaques, 33320 Colunga, Spain",33320,,,,,,Colunga,San Juan,Les Xuaques,
1387134,building,"Calle La Fuente, 16, 47686 Melgar de Arriba, Spain",47686,,,,,,Melgar de Arriba,,Calle La Fuente,
1387306,building,"Calle Esmeralda Maseda, 3, 33211 Gijón, Spain",33211,Gijón,Distrito Sur,,Roces,,,,Calle Esmeralda Maseda,
1394974,road,"Calle Larra, 33208 Gijón, Spain",33208,Gijón,Distrito Llano,,,,,,Calle Larra,
1394994,road,"Carretera de Castiello, 33203 Gijón, Spain",33203,Gijón,Distrito Rural,Castiello Bernueces,La Guía,,,,Carretera de Castiello,
1395192,road,"unnamed road, 33126 Soto del Barco, Spain",33126,Soto del Barco,,,,,Soto del Barco,Ponte,unnamed road,
1395195,road,"unnamed road, 33126 Soto del Barco, Spain",33126,Soto del Barco,,,,,Soto del Barco,Ponte,unnamed road,
1395198,road,"unnamed road, 33126 Soto del Barco, Spain",33126,Soto del Barco,,,,,Soto del Barco,Ponte,unnamed road,
1395199,road,"unnamed road, 33126 Soto del Barco, Spain",33126,Soto del Barco,,,,,Soto del Barco,Ponte,unnamed road,
1395201,road,"unnamed road, 33126 Soto del Barco, Spain",33126,Soto del Barco,,,,,Soto del Barco,Ponte,unnamed road,
1395202,road,"unnamed road, 33126 Soto del Barco, Spain",33126,Soto del Barco,,,,,Soto del Barco,Ponte,unnamed road,
1395203,road,"unnamed road, 33126 Soto del Barco, Spain",33126,Soto del Barco,,,,,Soto del Barco,Ponte,unnamed road,
1395216,road,"unnamed road, 33980 Laviana, Spain",33980,Laviana,,,,,Laviana,Llorío,unnamed road,
1395222,road,"Carretera de L'Entregu a El Condao, 33980 Laviana, Spain",33980,Laviana,,,,,,La Canterona,Carretera de L'Entregu a El Condao,AS-387
1395484,building,"Calle del Piles, 13, 33204 Gijón, Spain",33204,Gijón,Distrito Este,El Bibio,El Coto,,,,Calle del Piles,
1395652,road,"unnamed road, 33492 Carreño, Spain",33492,Carreño,,,,Candás,,Calera,unnamed road,
1395813,road,"Barrio Portuarios, 33299 Gijón, Spain",33299,Gijón,Distrito Oeste,,Jove / Xove,,,,Barrio Portuarios,
1395833,building,"Calle Eladio Carreño, 8, 33202 Gijón, Spain",33202,Gijón,Distrito Centro,,Centro,,,,Calle Eladio Carreño,
1396051,road,"Calle Río Curueño, Santa Colomba de Curueño, Spain",,,,,,,Santa Colomba de Curueño,,Calle Río Curueño,
1396066,road,"unnamed road, 33785 Valdés, Spain",33785,Valdés,,,,,,Fixuecas,unnamed road,
1396099,building,"Centro de Día Vetusta, Calle Faustino García-Roel Rodríguez, 2, 33007 Oviedo, Spain",33007,Oviedo,,,Llamaquique,,,,Calle Faustino García-Roel Rodríguez,
1396141,road,"Carretera de Gijón a Pola de Siero, 33350 Gijón, Spain",33350,Gijón,Distrito Rural,,,,,Caldones,Carretera de Gijón a Pola de Siero,AS-377
1396197,building,"Calle González Besada, 10, 33007 Oviedo, Spain",33007,Oviedo,,,Malatería,,,,Calle González Besada,
1396470,road,"Camino de Los Laureles, 33203 Gijón, Spain",33203,Gijón,Distrito Rural,Somió,La Guía,,,,Camino de Los Laureles,
1396587,commerce,"El Capricho de María, Calle Río Narcea, 26, 33010 Oviedo, Spain",33010,Oviedo,,,Ventanielles,,,,Calle Río Narcea,
1396588,building,"Calle Tenderina, 145, 33010 Oviedo, Spain",33010,Oviedo,,,Ventanielles,,,,Calle Tenderina,
1396593,commerce,"Casa Julio, Plaza de la Marina, 7, 33150 Cudillero, Spain",33150,Cudillero,,,,,Cudillero,La Telaya,Plaza de la Marina,
1396626,building,"Calle Ramón y Cajal, 20, 33202 Gijón, Spain",33202,Gijón,Distrito Este,,El Coto,,,,Calle Ramón y Cajal,
1396958,road,"unnamed road, 33100 Oviedo, Spain",33100,Oviedo,,,,,,Godos,unnamed road,
1397244,road,"unnamed road, 33193 Oviedo, Spain",33193,Oviedo,,,,,,Montecanales,unnamed road,
1397308,building,"Calle Emilio Tuya, 25, 33202 Gijón, Spain",33202,Gijón,Distrito Este,El Bibio,L'Arena,,,,Calle Emilio Tuya,
1397309,building,"Calle de la Forja, 6, 33211 Gijón, Spain",33211,Gijón,Distrito Oeste,,,,,El Puente Secu,Calle de la Forja,
1397422,road,"Calle Concejo de Somiedo, 33204 Gijón, Spain",33204,Gijón,Distrito Este,,Viesques,,,,Calle Concejo de Somiedo,
1397445,building,"Calle Consolación, 13, 33210 Gijón, Spain",33210,Gijón,Distrito Llano,,,,,,Calle Consolación,
1397753,road,"Santa Marina de Piedramuelle-Soto Ribera, por Las Caldas, 33140 Oviedo, Spain",33140,Oviedo,,,,,,El Cantayu,"Santa Marina de Piedramuelle-Soto Ribera, por Las Caldas",AS-322
1397754,road,"Santa Marina de Piedramuelle-Soto Ribera, por Las Caldas, 33140 Oviedo, Spain",33140,Oviedo,,,,,,El Cantayu,"Santa Marina de Piedramuelle-Soto Ribera, por Las Caldas",AS-322
1397872,road,"Camin de La Carbayera, 33210 Gijón, Spain",33210,Gijón,,,Nuevo Roces,,,,Camin de La Carbayera,
1398111,building,"Calle Ramón y Cajal, 62, 33204 Gijón, Spain",33204,Gijón,Distrito Este,,Ceares / Ciares,,,,Calle Ramón y Cajal,
1398124,road,"Avenida Profesor Pérez Pimentel, 33203 Gijón, Spain",33203,Gijón,Distrito Rural,,La Guía,,,,Avenida Profesor Pérez Pimentel,
1398306,road,"Santa Marina de Piedramuelle-Soto Ribera, por Las Caldas, 33140 Oviedo, Spain",33140,Oviedo,,,,,,El Cantayu,"Santa Marina de Piedramuelle-Soto Ribera, por Las Caldas",AS-322
1398614,road,"Calle Don Gerardo González Menéndez, 33138 Muros de Nalón, Spain",33138,,,,,,Muros de Nalón,La Pumariega,Calle Don Gerardo González Menéndez,
1398631,road,"unnamed road, 33993 Sobrescobio, Spain",33993,Sobrescobio,,,,,Sobrescobio,,unnamed road,
1398634,road,"unnamed road, 33980 Laviana, Spain",33980,Laviana,,,,,,El Rosil,unnamed road,
1398659,natural/water,Gulf of Lion,,,,,,,,,,
1398772,road,"unnamed road, 33457 Castrillón, Spain",33457,Castrillón,,,,Piedrasblancas,,Vegarrozadas,unnamed road,
1398793,transportation,"Calle La Xana, 33492 Carreño, Spain",33492,Carreño,,,,Candás,,La Xana,Calle La Xana,
1398817,road,"unnamed road, 33842 Somiedo, Spain",33842,Somiedo,,,,,,Viḷḷar de Vildas,unnamed road,
1398953,commerce,"Mimosa - Café lanar, Travesía del Convento, 9, 33202 Gijón, Spain",33202,Gijón,Distrito Centro,,Centro,,,,Travesía del Convento,
1398968,road,"unnamed road, 33294 Villaviciosa, Spain",33294,,,,,Villaviciosa,Villaviciosa,Venta La Esperanza,unnamed road,
1399163,road,"Calle Fernando El Santo, 33204 Gijón, Spain",33204,Gijón,Distrito Este,Les Mestes,Viesques,,,,Calle Fernando El Santo,
1399314,road,"Camín de la Carrial, 33392 Gijón, Spain",33392,Gijón,,,,,,Piñera,Camín de la Carrial,
1399317,road,"unnamed road, 24329 Sahagún, Spain",24329,,,,,Sahagún,,Galleguillos de Campos,unnamed road,
1399334,building,"Calle Santa Eladia, 71, 33210 Gijón, Spain",33210,Gijón,Distrito Llano,,,,,,Calle Santa Eladia,
1399351,road,"Carretera de Salas a Pravia (Tramo Pravia - Vegafriosa), Pravia, Spain",,,,,,Pravia,,Caunedo,Carretera de Salas a Pravia (Tramo Pravia - Vegafriosa),AS-369
1401050,building,"Calle Isabel La Católica, 2, 33909 Llangréu / Langreo, Spain",33909,,,,Sama,Llangréu / Langreo,,,Calle Isabel La Católica,
1401082,road,"Calle de la Paz, 26160 Arrúbal, Spain",26160,,,,,,Arrúbal,,Calle de la Paz,
1402124,building,"Calle Calderón de la Barca, 4, 33208 Gijón, Spain",33208,Gijón,Distrito Este,El Bibio,El Coto,,,,Calle Calderón de la Barca,
1402134,building,"Calle Calderón de la Barca, 4, 33208 Gijón, Spain",33208,Gijón,Distrito Este,El Bibio,El Coto,,,,Calle Calderón de la Barca,
1402136,building,"Calle Calderón de la Barca, 4, 33208 Gijón, Spain",33208,Gijón,Distrito Este,El Bibio,El Coto,,,,Calle Calderón de la Barca,
1402612,road,"Calle San Roque, 33440 Gozón, Spain",33440,Gozón,,Urbanización La Quinta,,Luanco / Lluanco,,Santana,Calle San Roque,
1403142,road,"Camín de Las Hayas, 33203 Gijón, Spain",33203,Gijón,Distrito Rural,Somió,La Guía,,,,Camín de Las Hayas,
1403257,road,"unnamed road, 33940 Samartín del Rei Aurelio, Spain",33940,,,,,Samartín del Rei Aurelio,,La Viña,unnamed road,
1403284,building,"Calle Leopoldo Alas, 33, 33204 Gijón, Spain",33204,Gijón,Distrito Este,El Bibio,El Coto,,,,Calle Leopoldo Alas,
1404690,commerce,"Ciclos Pin, Calle Santa Teresa de Jesús, 5, 33208 Gijón, Spain",33208,Gijón,Distrito Centro,,Laviada,,,,Calle Santa Teresa de Jesús,
1410596,road,"N-120a, 26250 Santo Domingo de la Calzada, Spain",26250,,,,,Santo Domingo de la Calzada,,,N-120a,N-120a
1410599,road,"Avenida Virgen de Valvanera, 26350 Cenicero, Spain",26350,,,,,,Cenicero,,Avenida Virgen de Valvanera,
1410715,road,"Luis Suárez ""Ximielga"", 33429 Oviedo, Spain",33429,Oviedo,,,Colloto / Cualloto,,,,"Luis Suárez ""Ximielga""",
1411288,road,"unnamed road, 33316 Villaviciosa, Spain",33316,,,,,Villaviciosa,,Muslera,unnamed road,
1411309,road,"Avenida del Mar Cantábrico, 33209 Gijón, Spain",33209,Gijón,Distrito Este,,Ceares / Ciares,,,,Avenida del Mar Cantábrico,
1411942,road,"unnamed road, 33316 Villaviciosa, Spain",33316,,,,,Villaviciosa,,Muslera,unnamed road,
1411960,road,"Calle el Arco, 24320 Sahagún, Spain",24320,,,,,Sahagún,,,Calle el Arco,
1412087,commerce,"El Puente, Calle Nicolás Soria, 33004 Oviedo, Spain",33004,Oviedo,,,Ciudad Naranco,,,,Calle Nicolás Soria,
1412095,building,"Cai Ríu Nalón, 7, 33600 Mieres, Spain",33600,Mieres,,Barrio de Santa Marina,,,,El Discu,Cai Ríu Nalón,
1412106,building,"Cai Ríu Nalón, 7, 33600 Mieres, Spain",33600,Mieres,,Barrio de Santa Marina,,,,El Discu,Cai Ríu Nalón,
1412119,building,"Calle San Pedro de Mestallón, 10, 33009 Oviedo, Spain",33009,Oviedo,,,Santo Domingo,,,,Calle San Pedro de Mestallón,
1412685,road,"unnamed road, 33316 Villaviciosa, Spain",33316,,,,,Villaviciosa,,Muslera,unnamed road,
1412696,road,"Carretera Pola de Siero - El Infanzón, por Peón, 33294 Villaviciosa, Spain",33294,,Distrito Rural,,,Villaviciosa,,Brañaverniz,"Carretera Pola de Siero - El Infanzón, por Peón",AS-331
1412795,road,"Avenida de Los Campones, 33211 Gijón, Spain",33211,Gijón,Distrito Oeste,,Tremañes,,,,Avenida de Los Campones,
1413714,road,"Calle Independencia, 33212 Gijón, Spain",33212,Gijón,Distrito Oeste,,El Natahoyo,,,,Calle Independencia,
1414320,building,"Calle Avelino González Mallada, 15, 33204 Gijón, Spain",33204,Gijón,Distrito Este,El Bibio,El Coto,,,,Calle Avelino González Mallada,
1414827,road,"Calle de Olleros, 47680 Mayorga, Spain",47680,,,,,,Mayorga,,Calle de Olleros,
1414883,road,"SR-1, 33518 Sariego, Spain",33518,Sariego,,,,,,Pedrosa,SR-1,SR-1
1414932,building,"Avenida de Pablo Iglesias, 43, 33202 Gijón, Spain",33202,Gijón,Distrito Centro,,Centro,,,,Avenida de Pablo Iglesias,
1419179,building,"Calle Uría / Cai Uría, 19, 33003 Oviedo, Spain",33003,Oviedo,,,Llamaquique,,,,Calle Uría / Cai Uría,
1419741,road,"Camín de Los Campones, 33392 Gijón, Spain",33392,Gijón,,,,,,La Pedrera,Camín de Los Campones,
1419744,road,"Avenida Gaspar García Laviana, 33210 Gijón, Spain",33210,Gijón,Distrito Sur,,Pumarín,,,,Avenida Gaspar García Laviana,
1420460,road,"unnamed road, 33669 Oviedo, Spain",33669,Oviedo,,,,,,El Picu La Viña,unnamed road,
1420470,building,"Calle Corredoria Baja, 110, 33011 Oviedo, Spain",33011,Oviedo,,,La Corredoria,,,,Calle Corredoria Baja,
1420474,commerce,"Alimerka, Calle Naranjo de Bulnes, 16, 33690 Llanera, Spain",33690,Llanera,,,Lugo de Llanera,,,,Calle Naranjo de Bulnes,
1420503,road,"AS-252 (Laviana - Cabañaquinta), 33980 Laviana, Spain",33980,Laviana,,Solavega,,,Laviana,La Correoria,AS-252 (Laviana - Cabañaquinta),AS-252
1420522,building,"Carretera de Pravia a Somao, 35, 33120 Pravia, Spain",33120,,,,,Pravia,,Somáu,Carretera de Pravia a Somao,
1420568,building,"Calle Cabrales, 9, 33201 Gijón, Spain",33201,Gijón,Distrito Centro,,Centro,,,,Calle Cabrales,
1421022,commerce,"Estanco La Pomar, Calle Baldomero Alonso, 33930 Llangréu / Langreo, Spain",33930,,,,La Felguera,Llangréu / Langreo,,,Calle Baldomero Alonso,
1421632,road,"unnamed road, 33438 Carreño, Spain",33438,Carreño,,,,,,La Rebollada,unnamed road,
1421647,road,"unnamed road, 33988 Samartín del Rei Aurelio, Spain",33988,,,,,Samartín del Rei Aurelio,,Les Argayaes,unnamed road,
1421668,road,"unnamed road, 33392 Gijón, Spain",33392,Gijón,,,,,,,unnamed road,
1421799,building,"Calle Campo Sagrado, 47, 33202 Gijón, Spain",33202,Gijón,Distrito Este,,El Coto,,,,Calle Campo Sagrado,
1422339,commerce,"Casa Julio, Plaza de la Marina, 7, 33150 Cudillero, Spain",33150,Cudillero,,,,,Cudillero,La Telaya,Plaza de la Marina,
1422347,commerce,"Ballenoil, Avenida de Roces, 33390 Gijón, Spain",33390,Gijón,,,Nuevo Roces,,,,Avenida de Roces,
1422354,road,"Vega de Contranquil, 33550 Cangas de Onís, Spain",33550,Cangas de Onís,,,,Cangas de Onís / Cangues d'Onís,,Helgueres,Vega de Contranquil,
1422357,road,"Calle Santa Apolonia, 33403 Avilés, Spain",33403,,,,El Pozón,Avilés,,,Calle Santa Apolonia,AS-17
1422359,road,"unnamed road, 33416 Corvera de Asturias, Spain",33416,Corvera de Asturias,,,,,Corvera de Asturias,Tresmonte,unnamed road,
1422368,road,"Calle Alcalde Parrondo, 33510 Siero, Spain",33510,Siero,,,,,,,Calle Alcalde Parrondo,N-634
1422400,road,"unnamed road, 33510 Siero, Spain",33510,Siero,,,,,,Villanueva,unnamed road,
1422404,road,"unnamed road, 33690 Llanera, Spain",33690,Llanera,,,,,,Pondal,unnamed road,
1422406,road,"Calle Remeros del Nalón, 33126 Soto del Barco, Spain",33126,Soto del Barco,,El Parador,,,Soto del Barco,La Madalena,Calle Remeros del Nalón,
1422409,road,"Calle Villafría, 33008 Oviedo, Spain",33008,Oviedo,,,Villafría,,,,Calle Villafría,
1422413,road,"Calle El Bolado, 33820 Grau / Grado, Spain",33820,,,,,Grau / Grado,,Entelosríos,Calle El Bolado,
1422425,road,"Avenida del Aramo, 33160 Riosa, Spain",33160,Riosa,,,,,Riosa,Prunadieḷḷa,Avenida del Aramo,AS-231
1422432,road,"RI-6, 33160 Riosa, Spain",33160,Riosa,,,,,Riosa,Nixeres,RI-6,RI-6
1423171,building,"Dos de Mayo, 33, 33212 Gijón, Spain",33212,Gijón,Distrito Oeste,,El Natahoyo,,,,Dos de Mayo,
1423911,commerce,"El Halcón Maltés, Calle Manuel Pedregal, 33001 Oviedo, Spain",33001,Oviedo,,,Llamaquique,,,,Calle Manuel Pedregal,
1423932,road,"Calle Molín de la Arena, 33440 Gozón, Spain",33440,Gozón,,Los Laureles,,Luanco / Lluanco,,L'Aramar,Calle Molín de la Arena,
1423939,building,"Piñares, unnamed road, Villaviciosa, Spain",,,,,,Villaviciosa,Villaviciosa,,unnamed road,
1424433,road,"unnamed road, 33138 Pravia, Spain",33138,,,,,Pravia,,La Reigada,unnamed road,
1424438,commerce,"Cafetería Juan, Calle Padre Aller, 3, 33012 Oviedo, Spain",33012,Oviedo,,,Los Solises,,,,Calle Padre Aller,
1424447,road,"unnamed road, 26200 Haro, Spain",26200,,,Barrio de La Estación,,Haro,,,unnamed road,
1424497,building,"Calle Alto del Real, 8, 33205 Gijón, Spain",33205,Gijón,Distrito Este,,Ceares / Ciares,,,,Calle Alto del Real,
1424943,road,"unnamed road, 22429 Llanera, Spain",22429,Llanera,,,,,,Fonciello,unnamed road,
1424966,road,"Calle La Magdalena, 33160 Riosa, Spain",33160,Riosa,,,,,Riosa,Prunadieḷḷa,Calle La Magdalena,
1424968,road,"Carretera de La Secada a Villaviciosa, 33300 Villaviciosa, Spain",33300,,,,,Villaviciosa,,La Corolla,Carretera de La Secada a Villaviciosa,AS-380
1425458,building,"Calle Marqués de Casa Valdés, 38, 33202 Gijón, Spain",33202,Gijón,Distrito Centro,,Centro,,,,Calle Marqués de Casa Valdés,
1425496,road,"unnamed road, 33119 Grau / Grado, Spain",33119,,,,,Grau / Grado,,La Calea (Bayo),unnamed road,
1426051,road,"unnamed road, 33610 Mieres, Spain",33610,Mieres,,La Felguera (Turón),,,Mieres,Les Viesques,unnamed road,
1427433,building,"Calle Mono, 3, 24340 Grajal de Campos, Spain",24340,,,,,,Grajal de Campos,,Calle Mono,
1428070,road,"Calle Monseñor Óscar Arnulfo Romero, 33011 Oviedo, Spain",33011,Oviedo,,Tocote,,,,Fitoria,Calle Monseñor Óscar Arnulfo Romero,
1428119,road,"unnamed road, 33560 Ribeseya, Spain",33560,Ribeseya,,Urbanización La Juncalera,,,,Tereñes,unnamed road,
1428176,road,"Paseo de San Martin, 33950 Samartín del Rei Aurelio, Spain",33950,,,El Serrallo,,Samartín del Rei Aurelio,Samartín del Rei Aurelio,El Pontón,Paseo de San Martin,
1428252,road,"Carretera de Santurio, 33394 Gijón, Spain",33394,Gijón,Distrito Rural,Cabueñes,,,,Cefontes,Carretera de Santurio,
1428256,road,"Carretera de Santurio, 33394 Gijón, Spain",33394,Gijón,Distrito Rural,Cabueñes,,,,Cefontes,Carretera de Santurio,
1428257,road,"Carretera de Santurio, 33394 Gijón, Spain",33394,Gijón,Distrito Rural,Cabueñes,,,,Cefontes,Carretera de Santurio,
1428260,road,"Carretera de Santurio, 33394 Gijón, Spain",33394,Gijón,Distrito Rural,Cabueñes,,,,Cefontes,Carretera de Santurio,
1428261,road,"Carretera de Santurio, 33394 Gijón, Spain",33394,Gijón,Distrito Rural,Cabueñes,,,,Cefontes,Carretera de Santurio,
1428417,road,"Santa Marina de Piedramuelle-Soto Ribera, por Las Caldas, 33140 Oviedo, Spain",33140,Oviedo,,,,,,El Cantayu,"Santa Marina de Piedramuelle-Soto Ribera, por Las Caldas",AS-322
1428853,road,"Camín Rial de San Pelayo, 33394 Gijón, Spain",33394,Gijón,Distrito Rural,,,,,San Pelayo,Camín Rial de San Pelayo,
1428871,building,"Avenida de Pablo Iglesias, 2, 33205 Gijón, Spain",33205,Gijón,Distrito Este,,Centro,,,,Avenida de Pablo Iglesias,
1431447,building,"Calle Niort, 31, 33204 Gijón, Spain",33204,Gijón,Distrito Este,El Bibio,Viesques,,,,Calle Niort,
1431653,building,"Calle Pintores, 15, 33211 Gijón, Spain",33211,Gijón,Distrito Sur,,Roces,,,,Calle Pintores,
1432512,commerce,"Restaurante El Pozo, Calle Pelayo, 2, 33750 El Franco, Spain",33750,El Franco,,,,,El Franco,Llóngara,Calle Pelayo,
1434941,road,"Camín del Cabezu, 33480 Gijón, Spain",33480,Gijón,,,,,,El Peridiellu,Camín del Cabezu,
1434956,road,"Carretera de Villabona a Serín, 33480 Gijón, Spain",33480,Gijón,,,,,,El Peridiellu,Carretera de Villabona a Serín,AS-325
1435034,building,"Calle Vicente Innerarity, 6, 33204 Gijón, Spain",33204,Gijón,Distrito Este,El Bibio,El Coto,,,,Calle Vicente Innerarity,
1435827,road,"unnamed road, 33919 Oviedo, Spain",33919,Oviedo,,,,,,Sotiello,unnamed road,
1437533,road,"Avenida del Mar Cantábrico, 33209 Gijón, Spain",33209,Gijón,Distrito Este,,Ceares / Ciares,,,,Avenida del Mar Cantábrico,
1437553,transportation,"Pinzales, Camín de la Estación, 33392 Gijón, Spain",33392,Gijón,,,,,,Fontaciera,Camín de la Estación,
1439140,road,"Calle León, Vallecillo, Spain",,,,,,,Vallecillo,,Calle León,
1439226,road,"Camín del Bayu, 33294 Villaviciosa, Spain",33294,,,Granderroble,,Villaviciosa,,Cazamular,Camín del Bayu,
1439227,road,"Marqués de San Féliz, 33630 Lena, Spain",33630,,,La Plaza,,Lena,,El Corraón,Marqués de San Féliz,
1439737,building,"Calle Menéndez Valdés, 9, 33205 Gijón, Spain",33205,Gijón,Distrito Centro,,Centro,,,,Calle Menéndez Valdés,
1440006,commerce,"El Templo, Calle La Trapa, 33840 Somiedo, Spain",33840,Somiedo,,,,,Somiedo,,Calle La Trapa,
1440566,commerce,"Librería Arvin, Avenida de la Libertad, 56, 33980 Laviana, Spain",33980,Laviana,,Solavega,,Pola de Laviana,,,Avenida de la Libertad,
1443628,road,"Carretera Sotrondio - Figareo (La Colladiella), 33950 Samartín del Rei Aurelio, Spain",33950,,,El Serrallo,,Samartín del Rei Aurelio,Samartín del Rei Aurelio,Paniceres (Santa Bárbola),Carretera Sotrondio - Figareo (La Colladiella),AS-337
1443658,road,"unnamed road, 33390 Gijón, Spain",33390,Gijón,,,,,,,unnamed road,
1444013,commerce,"Confitería Polledo, Calle Rivero, 16, 33402 Avilés, Spain",33402,,,,Versalles,Avilés,,,Calle Rivero,
1444877,travel/tourism,"Hostal La Codorniz, Avenida de la Constitución, 97, 24320 Sahagún, Spain",24320,,,,,Sahagún,,,Avenida de la Constitución,
1454708,road,"Plaza Fundador, Santurde de Rioja, Spain",,,,,,,Santurde de Rioja,,Plaza Fundador,
1454711,road,"Plaza Fundador, Santurde de Rioja, Spain",,,,,,,Santurde de Rioja,,Plaza Fundador,
1454731,road,"Plaza Fundador, Santurde de Rioja, Spain",,,,,,,Santurde de Rioja,,Plaza Fundador,
1454732,building,"Calle José Álvarez Valdés, 3, 33900 Llangréu / Langreo, Spain",33900,,,,,Llangréu / Langreo,,La Formiguera,Calle José Álvarez Valdés,
1454734,road,"Plaza Fundador, Santurde de Rioja, Spain",,,,,,,Santurde de Rioja,,Plaza Fundador,
1455381,road,"unnamed road, 33010 Oviedo, Spain",33010,Oviedo,,,El Palais,,,,unnamed road,
1455598,commerce,"El Zapatero del Campillín, Calle Padre Suárez, 33009 Oviedo, Spain",33009,Oviedo,,Colonia Marqués de San Feliz,Santo Domingo,,,,Calle Padre Suárez,
1456389,education,"Colegio Internacional Meres, Camín de los Colegios, 33199 Siero, Spain",33199,Siero,,,,,,Meres,Camín de los Colegios,
1456546,education,"Colegio Internacional Meres, Camín de los Colegios, 33199 Siero, Spain",33199,Siero,,,,,,Meres,Camín de los Colegios,
1456555,building,"Cai Quirós, 1, 33600 Mieres, Spain",33600,Mieres,,Barrio de Santa Marina,,,,El Discu,Cai Quirós,
1459496,road,"unnamed road, 33008 Oviedo, Spain",33008,Oviedo,,,,,,La Covadonga,unnamed road,
1459643,building,"El Cueto, LL-11, 33424 Llanera, Spain",33424,Llanera,,,,,,,LL-11,LL-11
1459847,road,"Camín del Rubín, 33213 Gijón, Spain",33213,Gijón,Distrito Oeste,,El Cerilleru,,,,Camín del Rubín,
1459855,building,"Calle Esperanto, 5, 33204 Gijón, Spain",33204,Gijón,Distrito Este,El Bibio,El Coto,,,,Calle Esperanto,
1459884,road,"Camín del Prau, 33210 Gijón, Spain",33210,Gijón,,,Nuevo Roces,,,,Camín del Prau,
1460010,road,"Calle Asturias, 33690 Llanera, Spain",33690,Llanera,,,Lugo de Llanera,,,,Calle Asturias,
1460225,road,"Camín del Picumil, 33390 Gijón, Spain",33390,Gijón,,,,,,,Camín del Picumil,
1460312,road,"unnamed road, 33317 Villaviciosa, Spain",33317,,,,,Villaviciosa,,Sebrayu,unnamed road,
1460802,road,"Avenida de Numancia, 26500 Calahorra, Spain",26500,,,,,Calahorra,,,Avenida de Numancia,
1460804,road,"Avenida de Numancia, 26500 Calahorra, Spain",26500,,,,,Calahorra,,,Avenida de Numancia,
1460807,road,"Avenida de Numancia, 26500 Calahorra, Spain",26500,,,,,Calahorra,,,Avenida de Numancia,
1460809,road,"Avenida de Numancia, 26500 Calahorra, Spain",26500,,,,,Calahorra,,,Avenida de Numancia,
1460810,road,"Avenida de Numancia, 26500 Calahorra, Spain",26500,,,,,Calahorra,,,Avenida de Numancia,
1460831,road,"Barriu La Villa, 33600 Mieres, Spain",33600,Mieres,,Barrio de Santa Marina,,,,El Cargaeru,Barriu La Villa,
1460849,building,"Calle Doctor Aquilino Hurlé, 4, 33202 Gijón, Spain",33202,Gijón,Distrito Este,El Bibio,El Coto,,,,Calle Doctor Aquilino Hurlé,
1460850,building,"Calle Ceán Bermúdez, 13, 33208 Gijón, Spain",33208,Gijón,Distrito Llano,,,,,,Calle Ceán Bermúdez,
1461527,education,"Autoescuela La Florida, Calle Manuel del Fresno, 33012 Oviedo, Spain",33012,Oviedo,,,El Vallobín,,,,Calle Manuel del Fresno,
1461570,road,"unnamed road, 26323 Hormilla, Spain",26323,,,,,,Hormilla,,unnamed road,
1461572,road,"unnamed road, 26323 Hormilla, Spain",26323,,,,,,Hormilla,,unnamed road,
1461578,road,"unnamed road, 26323 Hormilla, Spain",26323,,,,,,Hormilla,,unnamed road,
1461580,road,"unnamed road, 26323 Hormilla, Spain",26323,,,,,,Hormilla,,unnamed road,
1461583,road,"unnamed road, 26323 Hormilla, Spain",26323,,,,,,Hormilla,,unnamed road,
1461590,road,"unnamed road, 26323 Hormilla, Spain",26323,,,,,,Hormilla,,unnamed road,
1461592,road,"unnamed road, 26323 Hormilla, Spain",26323,,,,,,Hormilla,,unnamed road,
1461593,road,"unnamed road, 26323 Hormilla, Spain",26323,,,,,,Hormilla,,unnamed road,
1461653,building,"Calle Jaime Truyols Santonja, 7, 33011 Oviedo, Spain",33011,Oviedo,,,La Carisa,,,,Calle Jaime Truyols Santonja,
1462170,building,"Calle Jerónimo Ibrán, 3, 33001 Oviedo, Spain",33001,Oviedo,,Tocote,Pumarín,,,,Calle Jerónimo Ibrán,
1462173,commerce,"Peces de madera, Calle San José, 31, 33205 Gijón, Spain",33205,Gijón,Distrito Llano,,,,,,Calle San José,
1462879,building,"Calle Marqués de Casa Valdés, 65, 33202 Gijón, Spain",33202,Gijón,Distrito Este,,Centro,,,,Calle Marqués de Casa Valdés,
1467170,road,"CB-6, 33310 Cabranes, Spain",33310,Cabranes,,,,,Cabranes,Fresnéu,CB-6,CB-6
1467348,building,"Calle Río Eo, 12, 33210 Gijón, Spain",33210,Gijón,Distrito Sur,,Pumarín,,,,Calle Río Eo,
1475868,road,"Los Boxes, 33423 Llanera, Spain",33423,Llanera,,,,,Llanera,Pruvia Riba,Los Boxes,
1476574,building,"Calle Baleares, 21, 33208 Gijón, Spain",33208,Gijón,Distrito Sur,,Pumarín,,,,Calle Baleares,
1476707,road,"LE-2604, Puebla de Lillo, Spain",,,,,,,Puebla de Lillo,San Isidro,LE-2604,LE-2604
1476708,road,"LE-2604, Puebla de Lillo, Spain",,,,,,,Puebla de Lillo,San Isidro,LE-2604,LE-2604
1477102,building,"Calle San Francisco de Asís, 3, 33205 Gijón, Spain",33205,Gijón,Distrito Este,,Ceares / Ciares,,,,Calle San Francisco de Asís,
1477151,road,"unnamed road, 33199 Siero, Spain",33199,Siero,,,,,,El Cristo,unnamed road,
1479436,road,"Calle Amberes, Santa Cruz del Retamar, Spain",,,,,Calalberche,,Santa Cruz del Retamar,,Calle Amberes,
1479982,outdoors/recreation,"Parque Infantil Plaza de los Maestros, Calle Melquíades Cabal, 33080 Oviedo, Spain",33080,Oviedo,,Tocote,El Milán,,,,Calle Melquíades Cabal,
1479986,building,"Calle San Bernardo, 81D, 33205 Gijón, Spain",33205,Gijón,Distrito Centro,,Centro,,,,Calle San Bernardo,
1480547,road,"unnamed road, 33328 Colunga, Spain",33328,,,,,,Colunga,Sales,unnamed road,
1480750,road,"Calle Boca del Río, 33429 Oviedo, Spain",33429,Oviedo,,,Colloto / Cualloto,,,,Calle Boca del Río,
1480757,building,"Calle Ezcurdia, 29, 33202 Gijón, Spain",33202,Gijón,Distrito Este,El Bibio,L'Arena,,,,Calle Ezcurdia,
1481190,road,"unnamed road, Villaviciosa, Spain",,,,,,Villaviciosa,,Poreño,unnamed road,
1481232,road,"unnamed road, 33428 Llanera, Spain",33428,Llanera,,,,,,Campiello,unnamed road,
1481238,road,"Cuesta Eria, 33429 Oviedo, Spain",33429,Oviedo,,,Colloto / Cualloto,,,,Cuesta Eria,
1481624,road,"Calle Ramón Argüelles, 33930 Llangréu / Langreo, Spain",33930,,,,,Llangréu / Langreo,,Castandiello,Calle Ramón Argüelles,
1481689,building,"Calle Acebal y Rato, 2, 33205 Gijón, Spain",33205,Gijón,Distrito Centro,,Centro,,,,Calle Acebal y Rato,
1482270,road,"Calle Doctor Carlos Prieto, 33290 Gijón, Spain",33290,Gijón,Distrito Oeste,,Jove / Xove,,,,Calle Doctor Carlos Prieto,
1482352,building,"Calle Quevedo, 58, 33204 Gijón, Spain",33204,Gijón,Distrito Este,El Bibio,El Coto,,,,Calle Quevedo,
1482378,road,"unnamed road, 33510 Siero, Spain",33510,Siero,,,,,Siero,Casari,unnamed road,
1482859,road,"Travesía de Santa Eufemia, 26142 Villamediana de Iregua, Spain",26142,,,,,Villamediana de Iregua,,,Travesía de Santa Eufemia,
1482898,building,"Calle Quevedo, 63, 33204 Gijón, Spain",33204,Gijón,Distrito Este,El Bibio,El Coto,,,,Calle Quevedo,
1483251,building,"Camín de los Robles, 587, 33203 Gijón, Spain",33203,Gijón,Distrito Rural,Somió,La Guía,,,,Camín de los Robles,
1483271,road,"unnamed road, 33180 Siero, Spain",33180,Siero,,,,,,Fuentespino,unnamed road,
1483350,building,"Calle Manuel Cueto Guisasola, 10, 33013 Oviedo, Spain",33013,Oviedo,,,L'Argañosa,,,,Calle Manuel Cueto Guisasola,
1483469,building,"Calle Molín La Casuca, 12, 33011 Oviedo, Spain",33011,Oviedo,,,La Corredoria Este,,,,Calle Molín La Casuca,
1501174,road,"Carretera Irún - Santiago, 33750 El Franco, Spain",33750,El Franco,,,,,El Franco,Llóngara,Carretera Irún - Santiago,N-634
1501225,building,"Calle Ezcurdia, 97, 33204 Gijón, Spain",33204,Gijón,Distrito Este,El Bibio,El Coto,,,,Calle Ezcurdia,
1502491,building,"Camin del Trole, 554, 33394 Gijón, Spain",33394,Gijón,Distrito Rural,,,,,Cefontes,Camin del Trole,
1502577,health,"Clínica Veterinaria Quirós, Calle San Mateo, 8, 33008 Oviedo, Spain",33008,Oviedo,,,Malatería,,,,Calle San Mateo,
1502617,road,"Carretera de Les Yanes a Caufel, 33930 Llangréu / Langreo, Spain",33930,,,,,Llangréu / Langreo,,Caufel,Carretera de Les Yanes a Caufel,LA-5
1502990,building,"Calle Cienfuegos, 22, 33205 Gijón, Spain",33205,Gijón,Distrito Este,,El Coto,,,,Calle Cienfuegos,
1503316,financial,"Unicaja Banco, Plaza Luis Ruiz de la Peña, 33011 Oviedo, Spain",33011,Oviedo,,Tocote,Teatinos,,,,Plaza Luis Ruiz de la Peña,
1503349,building,"Plaza del Fresno, 5, 18, 33007 Oviedo, Spain",33007,Oviedo,,,Llamaquique,,,,Plaza del Fresno,
1503770,building,"Calle Marqués de San Esteban, 20, 33206 Gijón, Spain",33206,Gijón,Distrito Centro,,El Carmen,,,,Calle Marqués de San Esteban,
1503773,commerce,"Alimerka, Calle Río Ibias, 4, 33010 Oviedo, Spain",33010,Oviedo,,,Ventanielles,,,,Calle Río Ibias,
1503842,road,"Calle Baila, 47609 Santervás de Campos, Spain",47609,,,,,,Santervás de Campos,,Calle Baila,
1503868,road,"unnamed road, 33350 Gijón, Spain",33350,Gijón,,,,,Gijón,Los Villares,unnamed road,
1504385,building,"Calle Fuente del Real, 9, 33209 Gijón, Spain",33209,Gijón,Distrito Este,,Ceares / Ciares,,,,Calle Fuente del Real,
1504390,building,"Calle Padilla, 4, 33205 Gijón, Spain",33205,Gijón,Distrito Centro,,Centro,,,,Calle Padilla,
1504414,road,"Calle la Vía Verde, 26250 Santo Domingo de la Calzada, Spain",26250,,,,,Santo Domingo de la Calzada,,,Calle la Vía Verde,
1504472,road,"Calle Daniel Cerra, 33213 Gijón, Spain",33213,Gijón,Distrito Oeste,,La Calzada,,,,Calle Daniel Cerra,
1504487,road,"Camín de la Iglesia, 33350 Gijón, Spain",33350,Gijón,,,,,Gijón,Aroles,Camín de la Iglesia,
1504922,road,"unnamed road, 33560 Ribeseya, Spain",33560,Ribeseya,,,,,,Sardalla,unnamed road,
1505021,education,"Colegio Virgen Reina, Calle Avilés / Cai Avilés, 18, 33207 Gijón, Spain",33207,Gijón,Distrito Centro,,Laviada,,,,Calle Avilés / Cai Avilés,
1505367,road,"Calle Álvaro de Albornoz, 33271 Gijón, Spain",33271,Gijón,Distrito Centro,,Laviada,,,,Calle Álvaro de Albornoz,
1505402,road,"Calle Móstoles, 33212 Gijón, Spain",33212,Gijón,Distrito Oeste,,El Natahoyo,,,,Calle Móstoles,
1505418,road,"unnamed road, 33980 Laviana, Spain",33980,Laviana,,,,,Laviana,Llorío,unnamed road,
1505424,road,"Calle Severo Ochoa, 33430 Carreño, Spain",33430,Carreño,,,,Candás,,Les Cases del Molín,Calle Severo Ochoa,
1505926,road,"unnamed road, 33155 Cudillero, Spain",33155,Cudillero,,,,,,Salamir,unnamed road,
1505930,road,"unnamed road, 33155 Cudillero, Spain",33155,Cudillero,,,,,,Salamir,unnamed road,
1505934,road,"unnamed road, 33120 Pravia, Spain",33120,,,,,Pravia,,Los Cabos,unnamed road,
1506026,road,"Avenida del Mar, 33011 Oviedo, Spain",33011,Oviedo,,Tocote,Teatinos,,,,Avenida del Mar,AS-381
1506053,road,"unnamed road, 26142 Villamediana de Iregua, Spain",26142,,,,,Villamediana de Iregua,,,unnamed road,
1506377,road,"unnamed road, 26142 Villamediana de Iregua, Spain",26142,,,,,Villamediana de Iregua,,,unnamed road,
1506468,building,"Calle Laboratorios, 15, 33212 Gijón, Spain",33212,Gijón,Distrito Oeste,,Santa Olaya,,,,Calle Laboratorios,
1506513,building,"Calle Quevedo, 56, 33204 Gijón, Spain",33204,Gijón,Distrito Este,El Bibio,El Coto,,,,Calle Quevedo,
1507000,building,"9, 33491 Carreño, Spain",33491,Carreño,,,,Candás,,Perán,,
1507013,commerce,"El Rincón de Izan, Calle Torrecerredo, 35, 33012 Oviedo, Spain",33012,Oviedo,,,Ciudad Naranco,,,,Calle Torrecerredo,
1507057,building,"Calle Espinosa, 5, 33213 Gijón, Spain",33213,Gijón,Distrito Oeste,,El Cerilleru,,,,Calle Espinosa,
1507066,building,"Calle Zaragoza, 1, 33212 Gijón, Spain",33212,Gijón,Distrito Oeste,,Moreda,,,,Calle Zaragoza,
1507289,road,"Polígono de Riañu, 33920 Llangréu / Langreo, Spain",33920,,,Urbanización Cooperativa Pablo Iglesias,,Llangréu / Langreo,,Los Campones,Polígono de Riañu,
1507813,building,"Avenida de la Costa, 81, 33202 Gijón, Spain",33202,Gijón,Distrito Centro,,Centro,,,,Avenida de la Costa,
1508243,road,"Calle Maria Josefa Canellada, 33416 Corvera de Asturias, Spain",33416,Corvera de Asturias,,,,,Corvera de Asturias,La Rozona,Calle Maria Josefa Canellada,
1508877,building,"Suarón Asesores SLL, Calle Palacio, 33770 Vegadeo, Spain",33770,Vegadeo,,,,,Vegadeo,A Galea,Calle Palacio,
1508880,building,"Suarón Asesores SLL, Calle Palacio, 33770 Vegadeo, Spain",33770,Vegadeo,,,,,Vegadeo,A Galea,Calle Palacio,
1508881,building,"Suarón Asesores SLL, Calle Palacio, 33770 Vegadeo, Spain",33770,Vegadeo,,,,,Vegadeo,A Galea,Calle Palacio,
1508885,building,"Suarón Asesores SLL, Calle Palacio, 33770 Vegadeo, Spain",33770,Vegadeo,,,,,Vegadeo,A Galea,Calle Palacio,
1508888,building,"Suarón Asesores SLL, Calle Palacio, 33770 Vegadeo, Spain",33770,Vegadeo,,,,,Vegadeo,A Galea,Calle Palacio,
1508891,building,"Suarón Asesores SLL, Calle Palacio, 33770 Vegadeo, Spain",33770,Vegadeo,,,,,Vegadeo,A Galea,Calle Palacio,
1508894,building,"Suarón Asesores SLL, Calle Palacio, 33770 Vegadeo, Spain",33770,Vegadeo,,,,,Vegadeo,A Galea,Calle Palacio,
1508898,building,"Suarón Asesores SLL, Calle Palacio, 33770 Vegadeo, Spain",33770,Vegadeo,,,,,Vegadeo,A Galea,Calle Palacio,
1508903,building,"Calle Anselmo Solar, 78, 33204 Gijón, Spain",33204,Gijón,Distrito Este,Les Mestes,Viesques,,,,Calle Anselmo Solar,
1509069,road,"Calle Ramón Areces, 33820 Grau / Grado, Spain",33820,,,,,Grau / Grado,,El Barriu Azul,Calle Ramón Areces,
1509475,road,"Calle Monsacro, 33210 Gijón, Spain",33210,Gijón,Distrito Sur,,Nuevo Gijón,,,,Calle Monsacro,
1520271,building,"Avenida de Castilla, 7, 33204 Gijón, Spain",33204,Gijón,Distrito Este,El Bibio,El Coto,,,,Avenida de Castilla,
1520274,building,"Calle Juan Alvargonzález, 56, 33208 Gijón, Spain",33208,Gijón,Distrito Llano,,,,,,Calle Juan Alvargonzález,
1520283,road,"Calle Daoíz y Velarde, 33212 Gijón, Spain",33212,Gijón,Distrito Oeste,,El Natahoyo,,,,Calle Daoíz y Velarde,
1520656,road,"Avenida de Numancia, 26500 Calahorra, Spain",26500,,,,,Calahorra,,,Avenida de Numancia,
1520663,road,"Avenida de Numancia, 26500 Calahorra, Spain",26500,,,,,Calahorra,,,Avenida de Numancia,
1520673,road,"Avenida de Numancia, 26500 Calahorra, Spain",26500,,,,,Calahorra,,,Avenida de Numancia,
1520674,road,"Avenida de Numancia, 26500 Calahorra, Spain",26500,,,,,Calahorra,,,Avenida de Numancia,
1521092,building,"Calle Arquitecto Tioda, 6, 33012 Oviedo, Spain",33012,Oviedo,,,El Vallobín,,,,Calle Arquitecto Tioda,
1521784,building,"Calle Matadero Viejo, 3, 33206 Gijón, Spain",33206,Gijón,Distrito Centro,,El Carmen,,,,Calle Matadero Viejo,
1522145,road,"unnamed road, 33300 Villaviciosa, Spain",33300,,,,,Villaviciosa,,Grases,unnamed road,
1522152,road,"CB-6, 33310 Cabranes, Spain",33310,Cabranes,,,,,Cabranes,Fresnéu,CB-6,CB-6
1522200,road,"LU-P-2006, 27780 Foz, Spain",27780,,,Fondós,,Foz,,O Castro,LU-P-2006,LU-P-2006
1522356,road,"Calle Santiago de Compostela, 33001 Oviedo, Spain",33001,Oviedo,,,Prados de la Fuente,,,,Calle Santiago de Compostela,
1522366,road,"unnamed road, 33936 Siero, Spain",33936,Siero,,,,,,La Cueña,unnamed road,
1522646,road,"Camín de L'Arrionda, 33390 Gijón, Spain",33390,Gijón,,,,,,Llantones,Camín de L'Arrionda,
1522663,road,"Camino de La Nozaleda, 33210 Gijón, Spain",33210,Gijón,Distrito Sur,,Roces,,,,Camino de La Nozaleda,
1522687,commerce,"Alimerka, Calle de Pablo Iglesias, 33900 Llangréu / Langreo, Spain",33900,,,,Sama,Llangréu / Langreo,,,Calle de Pablo Iglesias,
1523009,health,"Farmacia Criado, Calle Juan Alvargonzalez, 33271 Gijón, Spain",33271,Gijón,Distrito Sur,,,,,,Calle Juan Alvargonzalez,
1523012,road,"Carretera de Avilés, 33213 Gijón, Spain",33213,Gijón,Distrito Oeste,,El Cerilleru,,,,Carretera de Avilés,
1524306,commerce,"Paco Martínez, Calle Gil de Jaz, 33004 Oviedo, Spain",33004,Oviedo,,,Llamaquique,,,,Calle Gil de Jaz,
1524313,commerce,"Paco Martínez, Calle Gil de Jaz, 33004 Oviedo, Spain",33004,Oviedo,,,Llamaquique,,,,Calle Gil de Jaz,
1534898,commerce,"Paco Martínez, Calle Gil de Jaz, 33004 Oviedo, Spain",33004,Oviedo,,,Llamaquique,,,,Calle Gil de Jaz,
1534992,road,"Camín del Balcón, 33211 Gijón, Spain",33211,Gijón,,,,,,El Barrio Vega,Camín del Balcón,
1535280,road,"unnamed road, 33520 Nava, Spain",33520,,,,,,Nava,Purnea,unnamed road,
1535286,road,"unnamed road, 33520 Nava, Spain",33520,,,,,,Nava,Purnea,unnamed road,
1535386,road,"Calle Alarcón, 33204 Gijón, Spain",33204,Gijón,Distrito Este,El Bibio,El Coto,,,,Calle Alarcón,
1535387,commerce,"Toscana, Calle Cervantes, 33206 Gijón, Spain",33206,Gijón,Distrito Centro,,El Carmen,,,,Calle Cervantes,
1535470,building,"Calle Félix Aramburu, 8, 33007 Oviedo, Spain",33007,Oviedo,,,Llamaquique,,,,Calle Félix Aramburu,
1535543,commerce,"Paco Martínez, Calle Gil de Jaz, 33004 Oviedo, Spain",33004,Oviedo,,,Llamaquique,,,,Calle Gil de Jaz,
1535783,building,"Calle de San Juan, 8, 33080 Oviedo, Spain",33080,Oviedo,,Colonia Marqués de San Feliz,Casco Antiguo,,,,Calle de San Juan,
1536334,road,"unnamed road, 33005 Oviedo, Spain",33005,Oviedo,,,El Vallobín,,,,unnamed road,
1536418,building,"Calle Antonio Maura, 15, 33012 Oviedo, Spain",33012,Oviedo,,,El Vallobín,,,,Calle Antonio Maura,
1536449,building,"Calle Feijoo, 87, 33204 Gijón, Spain",33204,Gijón,Distrito Este,El Bibio,El Coto,,,,Calle Feijoo,
1536713,education,"C.P. Poeta Juan Ochoa, Calle Núñez de Balboa, 33403 Avilés, Spain",33403,,,,La Luz,Avilés,,,Calle Núñez de Balboa,
1537840,road,"Calle Doctor Pando Valle, 33000 Villaviciosa, Spain",33000,,,,,Villaviciosa,,,Calle Doctor Pando Valle,
1559455,road,"Carretera de San Julián a La Cruz, 33527 Bimenes, Spain",33527,Bimenes,,,,,Bimenes,La Quintana,Carretera de San Julián a La Cruz,BI-1
1559915,road,"SR-1, 33518 Sariego, Spain",33518,Sariego,,,,,,Pedrosa,SR-1,SR-1
1559926,road,"Carretera San Julián de Bimenes - Carbayín Alto, 33527 Bimenes, Spain",33527,Bimenes,,La Villa Riba,,,Bimenes,La Llantá,Carretera San Julián de Bimenes - Carbayín Alto,AS-324
1559928,building,"Concejo de Grandas de Salime, 1-3, 33290 Gijón, Spain",33290,Gijón,Distrito Oeste,,El Cerilleru,,,,Concejo de Grandas de Salime,
1559947,building,"Calle Felipe II, 6, 33213 Gijón, Spain",33213,Gijón,Distrito Oeste,,El Cerilleru,,,,Calle Felipe II,
1560088,building,"Calle Aureliano San Román, 40, 33011 Oviedo, Spain",33011,Oviedo,,Tocote,Pumarín,,,,Calle Aureliano San Román,
1564719,building,"Calle Lope de Vega, 15, 33008 Oviedo, Spain",33008,Oviedo,,,Fozaneldi,,,,Calle Lope de Vega,
1564726,road,"Camín de la Escuela, 33390 Gijón, Spain",33390,Gijón,,,,,,La Pedrera,Camín de la Escuela,
1575211,commerce,"Bobela, Cai Juanin de Mieres, 33600 Mieres, Spain",33600,Mieres,,La Campeta,,,,La Rotella,Cai Juanin de Mieres,
1575386,road,"Calle de la Muralla, 33201 Gijón, Spain",33201,Gijón,Distrito Centro,,Centro,,,,Calle de la Muralla,
1575393,building,"Calle Ribagorza, 10, 33208 Gijón, Spain",33208,Gijón,Distrito Llano,,,,,,Calle Ribagorza,
1583469,road,"unnamed road, 33157 Cudillero, Spain",33157,Cudillero,,,,,,Nuviana,unnamed road,
1583586,building,"Calle Infiesto / Cai L'Infiestu, 5, 33207 Gijón, Spain",33207,Gijón,Distrito Centro,,Laviada,,,,Calle Infiesto / Cai L'Infiestu,
1583591,road,"Carretera de Nava a Santa Eulalia de Cabranes, 33310 Cabranes, Spain",33310,Cabranes,,,,,,Fresnéu,Carretera de Nava a Santa Eulalia de Cabranes,AS-335
1583605,road,"Calle Regina Franco, 24320 Sahagún, Spain",24320,,,,,Sahagún,,,Calle Regina Franco,
1584179,road,"Calle Puerto de Pajares, 33980 Laviana, Spain",33980,Laviana,,Solavega,,Pola de Laviana,,,Calle Puerto de Pajares,
1585656,building,"Calle Río Sella, 13, 33210 Gijón, Spain",33210,Gijón,Distrito Sur,,Contrueces,,,,Calle Río Sella,
1585797,commerce,"Sidreria La Barrica, Calle Camin Real, 33429 Oviedo, Spain",33429,Oviedo,,,Colloto / Cualloto,,,,Calle Camin Real,
1585899,road,"Camín de La Pedrera, 33392 Gijón, Spain",33392,Gijón,,,,,,Arroyo (La Pedrera),Camín de La Pedrera,
1586334,building,"Carretera de L'Entregu a El Condao, 0, 33970 Laviana, Spain",33970,Laviana,,,Barredos,,,,Carretera de L'Entregu a El Condao,
1586336,building,"Carretera de L'Entregu a El Condao, 0, 33970 Laviana, Spain",33970,Laviana,,,Barredos,,,,Carretera de L'Entregu a El Condao,
1586338,building,"Carretera de L'Entregu a El Condao, 0, 33970 Laviana, Spain",33970,Laviana,,,Barredos,,,,Carretera de L'Entregu a El Condao,
1586339,building,"Carretera de L'Entregu a El Condao, 0, 33970 Laviana, Spain",33970,Laviana,,,Barredos,,,,Carretera de L'Entregu a El Condao,
1586357,road,"Calle Anastasio Mateo, 26142 Villamediana de Iregua, Spain",26142,,,,,Villamediana de Iregua,,,Calle Anastasio Mateo,LR-551
1587160,building,"Calle Conde de Toreno, 25, 33204 Gijón, Spain",33204,Gijón,Distrito Este,El Bibio,Ceares / Ciares,,,,Calle Conde de Toreno,
1587189,road,"unnamed road, 33700 Valdés, Spain",33700,Valdés,,Viḷḷar,,Luarca / Ḷḷuarca,,Barceḷḷina,unnamed road,
1587275,road,"Paseo del Espolón, 26250 Santo Domingo de la Calzada, Spain",26250,,,,,Santo Domingo de la Calzada,,,Paseo del Espolón,
1587278,road,"Plaza Fundador, Santurde de Rioja, Spain",,,,,,,Santurde de Rioja,,Plaza Fundador,
1587289,road,"unnamed road, 26190 Nalda, Spain",26190,,,,,,Nalda,,unnamed road,
1587309,building,"Calle Felipe V, 9, 33204 Gijón, Spain",33204,Gijón,Distrito Este,El Bibio,El Coto,,,,Calle Felipe V,
1587316,road,"unnamed road, 27798 O Teixo, Spain",27798,,,,,,,O Teixo,unnamed road,
1587326,road,"Calle Poeta Jose Hierro, 33204 Gijón, Spain",33204,Gijón,Distrito Este,,Ceares / Ciares,,,,Calle Poeta Jose Hierro,
1587351,building,"Calle Corín Tellado, 27, 33204 Gijón, Spain",33204,Gijón,Distrito Este,Les Mestes,Viesques,,,,Calle Corín Tellado,
1633920,road,"Carretera Oviedo - Porceyo, 33392 Gijón, Spain",33392,Gijón,,,,,,Casares,Carretera Oviedo - Porceyo,AS-381
1634486,building,"Calle Ribagorza, 3, 33208 Gijón, Spain",33208,Gijón,Distrito Llano,,,,,,Calle Ribagorza,
1634595,building,"Calle Marqués de Santa Cruz, 10, 33007 Oviedo, Spain",33007,Oviedo,,Colonia Marqués de San Feliz,Casco Antiguo,,,,Calle Marqués de Santa Cruz,
1635633,commerce,"Casa Juan, Avenida de Schulz, 33271 Gijón, Spain",33271,Gijón,Distrito Llano,,,,,,Avenida de Schulz,
1638440,road,"unnamed road, 33423 Llanera, Spain",33423,Llanera,,,,,,La Llomba,unnamed road,
1638996,building,"Calle Marqués de Santa Cruz, 10, 33007 Oviedo, Spain",33007,Oviedo,,Colonia Marqués de San Feliz,Casco Antiguo,,,,Calle Marqués de Santa Cruz,
1639005,building,"Calle Marqués de Santa Cruz, 10, 33007 Oviedo, Spain",33007,Oviedo,,Colonia Marqués de San Feliz,Casco Antiguo,,,,Calle Marqués de Santa Cruz,
1639008,building,"Calle Marqués de Santa Cruz, 10, 33007 Oviedo, Spain",33007,Oviedo,,Colonia Marqués de San Feliz,Casco Antiguo,,,,Calle Marqués de Santa Cruz,
1639010,building,"Calle Marqués de Santa Cruz, 10, 33007 Oviedo, Spain",33007,Oviedo,,Colonia Marqués de San Feliz,Casco Antiguo,,,,Calle Marqués de Santa Cruz,
1639013,building,"Calle Marqués de Santa Cruz, 10, 33007 Oviedo, Spain",33007,Oviedo,,Colonia Marqués de San Feliz,Casco Antiguo,,,,Calle Marqués de Santa Cruz,
1639017,building,"Calle Marqués de Santa Cruz, 10, 33007 Oviedo, Spain",33007,Oviedo,,Colonia Marqués de San Feliz,Casco Antiguo,,,,Calle Marqués de Santa Cruz,
1639022,building,"Calle Marqués de Santa Cruz, 10, 33007 Oviedo, Spain",33007,Oviedo,,Colonia Marqués de San Feliz,Casco Antiguo,,,,Calle Marqués de Santa Cruz,
1639027,building,"Calle Marqués de Santa Cruz, 10, 33007 Oviedo, Spain",33007,Oviedo,,Colonia Marqués de San Feliz,Casco Antiguo,,,,Calle Marqués de Santa Cruz,
1639029,building,"Calle Marqués de Santa Cruz, 10, 33007 Oviedo, Spain",33007,Oviedo,,Colonia Marqués de San Feliz,Casco Antiguo,,,,Calle Marqués de Santa Cruz,
1639031,building,"Calle Marqués de Santa Cruz, 10, 33007 Oviedo, Spain",33007,Oviedo,,Colonia Marqués de San Feliz,Casco Antiguo,,,,Calle Marqués de Santa Cruz,
1639084,building,"Calle Marqués de Santa Cruz, 10, 33007 Oviedo, Spain",33007,Oviedo,,Colonia Marqués de San Feliz,Casco Antiguo,,,,Calle Marqués de Santa Cruz,
1639089,building,"Calle Marqués de Santa Cruz, 10, 33007 Oviedo, Spain",33007,Oviedo,,Colonia Marqués de San Feliz,Casco Antiguo,,,,Calle Marqués de Santa Cruz,
1639096,building,"Calle Marqués de Santa Cruz, 10, 33007 Oviedo, Spain",33007,Oviedo,,Colonia Marqués de San Feliz,Casco Antiguo,,,,Calle Marqués de Santa Cruz,
1639097,building,"Calle Marqués de Santa Cruz, 10, 33007 Oviedo, Spain",33007,Oviedo,,Colonia Marqués de San Feliz,Casco Antiguo,,,,Calle Marqués de Santa Cruz,
1639098,building,"Calle Marqués de Santa Cruz, 10, 33007 Oviedo, Spain",33007,Oviedo,,Colonia Marqués de San Feliz,Casco Antiguo,,,,Calle Marqués de Santa Cruz,
1639483,building,"Calle Dindurra, 21, 33202 Gijón, Spain",33202,Gijón,Distrito Centro,,Centro,,,,Calle Dindurra,
1639707,road,"Calle Sanz Crespo, 33206 Gijón, Spain",33206,Gijón,Distrito Centro,,El Carmen,,,,Calle Sanz Crespo,
1640178,building,"Calle Reconquista, 20D, 33205 Gijón, Spain",33205,Gijón,Distrito Este,,Ceares / Ciares,,,,Calle Reconquista,
1640886,road,"unnamed road, 33314 Villaviciosa, Spain",33314,,,,,Villaviciosa,,,unnamed road,
1640912,building,"Calle Poeta Alfonso Camín, 2, 33209 Gijón, Spain",33209,Gijón,Distrito Llano,,,,,,Calle Poeta Alfonso Camín,
1641015,education,"Instituto de Educación Secundaria El Piles, Paseo del Doctor Fleming, 1065, 33203 Gijón, Spain",33203,Gijón,Distrito Rural,,La Guía,,,,Paseo del Doctor Fleming,
1641016,education,"Instituto de Educación Secundaria El Piles, Paseo del Doctor Fleming, 1065, 33203 Gijón, Spain",33203,Gijón,Distrito Rural,,La Guía,,,,Paseo del Doctor Fleming,
1641126,building,"Centro de Día Vetusta, Calle Faustino García-Roel Rodríguez, 2, 33007 Oviedo, Spain",33007,Oviedo,,,Llamaquique,,,,Calle Faustino García-Roel Rodríguez,
1641355,commerce,"Blú Café, Calle Pedro Duro, 9, 33206 Gijón, Spain",33206,Gijón,Distrito Centro,,El Carmen,,,,Calle Pedro Duro,
1641445,road,"unnamed road, 33589 Cangas de Onís, Spain",33589,Cangas de Onís,,,,,,Sotu l'Ensertal,unnamed road,
1641447,road,"unnamed road, 33589 Cangas de Onís, Spain",33589,Cangas de Onís,,,,,,Sotu l'Ensertal,unnamed road,
1641956,commerce,"Javi Pinturas, Calle La Colegiata, 33520 Nava, Spain",33520,,,,,,Nava,Villabona,Calle La Colegiata,
1650240,building,"Calle de Fernández Vallín, 2, 33206 Gijón, Spain",33206,Gijón,Distrito Centro,,Centro,,,,Calle de Fernández Vallín,
